address_id,address_line_1,address_line_2,city,state,postal_code,latitude,longitude,phone_number,email
1,85930 Kenwood Terrace,Suite 11,Brooklyn,New York,11225,40.6628,-73.9546,718-592-9165,kmiranda0@java.com
2,775 Algoma Center,Apt 1257,Saint Paul,Minnesota,55166,45.0059,-93.1059,651-577-8307,qneylon1@pinterest.com
3,28 Nelson Hill,Apt 497,Kalamazoo,Michigan,49006,42.2922,-85.633,269-144-7467,cmaunders2@sohu.com
4,2871 Melby Street,Apt 480,Shawnee Mission,Kansas,66220,38.9613,-94.8222,913-328-7864,kmerrin3@icio.us
5,11136 Badeau Plaza,PO Box 88949,Saint Paul,Minnesota,55115,45.071,-92.9391,651-523-5660,lbottomer4@google.cn
6,0841 Burrows Circle,5th Floor,Columbia,South Carolina,29215,34.006,-80.9708,803-476-4780,cmcilhone5@businessinsider.com
7,938 Farwell Drive,Suite 3,Houston,Texas,77080,29.8159,-95.523,713-116-1427,akettle6@usgs.gov
8,71437 2nd Junction,Apt 1337,Fort Wayne,Indiana,46852,41.0938,-85.0707,260-100-0744,pcomo7@time.com
9,056 Elka Hill,Room 1593,Mesa,Arizona,85215,33.4707,-111.7188,480-151-3047,schristin8@usa.gov
10,9201 Mccormick Parkway,PO Box 12866,Idaho Falls,Idaho,83405,43.3233,-111.7822,208-105-2788,hworthing9@imageshack.us
11,7 Wayridge Junction,Apt 662,Fort Pierce,Florida,34981,27.4049,-80.3623,772-369-5516,mbrownbridgea@telegraph.co.uk
12,9724 Manufacturers Trail,PO Box 57356,Chesapeake,Virginia,23324,36.8056,-76.2666,757-799-1696,kstaintonb@sitemeter.com
13,3 Doe Crossing Circle,Suite 17,Spokane,Washington,99210,47.6536,-117.4317,509-974-2711,bdorroc@springer.com
14,27983 Milwaukee Junction,Suite 63,Houston,Texas,77010,29.7543,-95.3609,281-243-0357,ldimmerd@yellowbook.com
15,120 Nancy Crossing,17th Floor,Montgomery,Alabama,36195,32.3544,-86.2843,334-980-2740,cmcdougalle@answers.com
16,33 Jay Park,Apt 949,Des Moines,Iowa,50320,41.5487,-93.5827,515-310-9578,vbenmoref@mashable.com
17,98357 Hollow Ridge Alley,PO Box 69172,Seattle,Washington,98133,47.7377,-122.3431,425-991-1569,abrabhamg@epa.gov
18,09414 Lakeland Avenue,Suite 50,Terre Haute,Indiana,47805,39.5327,-87.3255,812-567-1516,pdegregolih@a8.net
19,1 Gateway Way,Apt 775,Naples,Florida,33963,26.2626,-81.8071,239-791-7979,rduddingi@europa.eu
20,07616 La Follette Place,Suite 23,Phoenix,Arizona,85035,33.4724,-112.1832,623-353-2526,ahaworthj@whitehouse.gov
21,40 Toban Junction,Suite 26,Tulsa,Oklahoma,74149,36.1398,-96.0297,918-392-8423,rladbrookek@washington.edu
22,16 Shelley Road,Apt 1341,Lake Charles,Louisiana,70607,30.1244,-93.1835,337-440-1096,ballibertonl@washingtonpost.com
23,602 Hanover Alley,Apt 923,Saint Paul,Minnesota,55188,45.0059,-93.1059,651-883-1094,gsemmensm@patch.com
24,66103 Monument Place,2nd Floor,Norfolk,Virginia,23504,36.8586,-76.2686,757-337-1639,cmosesn@discuz.net
25,195 Monica Junction,Apt 1180,Detroit,Michigan,48295,42.2399,-83.1508,313-302-6236,carnaoo@tuttocitta.it
26,77 Schurz Avenue,2nd Floor,Norfolk,Virginia,23514,36.9312,-76.2397,757-465-7561,jcoughlinp@reference.com
27,92016 Rockefeller Lane,Room 962,Temple,Texas,76505,31.0363,-97.492,254-813-9326,alabbezq@ted.com
28,105 Mallard Way,PO Box 17043,Greenville,South Carolina,29610,34.8497,-82.4538,864-407-0699,ahemsteadr@delicious.com
29,0474 Lakewood Gardens Trail,PO Box 46191,Moreno Valley,California,92555,33.9377,-117.1851,951-572-8305,dleperes@wiley.com
30,545 Hallows Court,Room 1308,Muncie,Indiana,47306,40.2023,-85.4082,765-211-2312,gstreetent@hao123.com
31,9 Columbus Park,PO Box 99753,Seattle,Washington,98127,47.6063,-122.3308,206-617-0350,fprescotu@vkontakte.ru
32,99 Twin Pines Place,Apt 1250,Washington,District of Columbia,20409,38.8933,-77.0146,202-313-3313,csackettv@storify.com
33,5 Sauthoff Hill,Apt 194,Albany,New York,12242,42.6149,-73.9708,518-303-3652,schildw@squarespace.com
34,5457 Holy Cross Hill,PO Box 86975,Jacksonville,Florida,32220,30.329,-81.8176,904-734-4620,bemmettx@hp.com
35,8 Memorial Hill,Apt 1197,Austin,Texas,78721,30.2721,-97.6868,512-696-7166,mmowlamy@netlog.com
36,6570 Harbort Avenue,11th Floor,Minneapolis,Minnesota,55448,45.1907,-93.3021,763-344-7031,hiacoviniz@mediafire.com
37,84151 Grasskamp Trail,Suite 23,Cleveland,Ohio,44125,41.4335,-81.6323,216-848-0486,tedel10@rambler.ru
38,55344 Declaration Court,15th Floor,Columbus,Mississippi,39705,33.5508,-88.4865,662-130-9128,pwoolacott11@nature.com
39,09 Marcy Hill,Apt 1660,Newark,New Jersey,07104,40.7664,-74.1695,973-136-5663,wkillgus12@weebly.com
40,160 Sunnyside Trail,1st Floor,New Orleans,Louisiana,70160,30.033,-89.8826,504-499-8702,pstealfox13@deviantart.com
41,72993 Amoth Terrace,Suite 50,Phoenix,Arizona,85062,33.2765,-112.1872,602-620-0469,jkennifick14@icq.com
42,926 Morrow Alley,15th Floor,Winston Salem,North Carolina,27150,36.0275,-80.2073,336-828-8628,jdrynan15@telegraph.co.uk
43,2 Merry Pass,17th Floor,Huntington,West Virginia,25770,38.4134,-82.2774,304-591-4788,vdevlin16@buzzfeed.com
44,13708 Springs Pass,PO Box 24965,Philadelphia,Pennsylvania,19196,40.0018,-75.1179,215-584-4126,fselcraig17@over-blog.com
45,11789 Petterle Court,Suite 17,Topeka,Kansas,66699,39.0429,-95.7697,785-559-9310,fmessom18@pinterest.com
46,73 Pawling Crossing,11th Floor,Nashville,Tennessee,37245,36.1866,-86.7852,615-399-6924,rbrandt19@amazon.com
47,239 Beilfuss Terrace,Room 1464,Dallas,Texas,75277,32.7673,-96.7776,214-655-4075,zbevir1a@businessinsider.com
48,955 Pierstorff Center,Apt 255,El Paso,Texas,79928,31.6631,-106.1401,915-306-1716,gstoker1b@theguardian.com
49,241 Lakeland Hill,Suite 5,Dayton,Ohio,45419,39.7155,-84.1637,937-313-5982,kmenichelli1c@weibo.com
50,4593 Duke Court,Suite 91,Fort Worth,Texas,76178,32.7714,-97.2915,682-383-9865,cvanderplas1d@tumblr.com
51,3 Lotheville Center,Room 1608,Cleveland,Ohio,44105,41.4509,-81.619,216-734-4635,tbanbury1e@cornell.edu
52,0 Kedzie Plaza,Apt 331,Lawrenceville,Georgia,30045,33.9367,-83.9573,404-647-0893,ckirton1f@goodreads.com
53,89 Longview Alley,18th Floor,Canton,Ohio,44720,40.8956,-81.433,330-947-0027,cpeat1g@bbc.co.uk
54,0 Mendota Crossing,Apt 1961,Harrisburg,Pennsylvania,17110,40.303,-76.8862,717-642-4189,wmcglue1h@google.com.br
55,4 Linden Plaza,Suite 51,Charlotte,North Carolina,28215,35.244,-80.7387,704-899-1962,aconnelly1i@sogou.com
56,87424 Hovde Plaza,Apt 628,Trenton,New Jersey,08619,40.2418,-74.6962,609-473-8116,telsdon1j@deviantart.com
57,7329 Tennessee Drive,Suite 85,Pasadena,California,91199,34.1478,-118.1436,626-517-0023,tollive1k@senate.gov
58,8882 Ruskin Court,Suite 9,Huntington,West Virginia,25716,38.4134,-82.2774,304-221-5206,lamery1l@networkadvertising.org
59,6 Upham Alley,Room 610,Sacramento,California,94273,38.3774,-121.4444,916-580-0770,wpimlock1m@nytimes.com
60,1 Golf Avenue,Apt 117,El Paso,Texas,88574,31.6948,-106.3,915-242-9709,cmorcomb1n@bbb.org
61,7104 Moose Court,Room 1118,Portland,Oregon,97211,45.5653,-122.6448,208-747-6422,probker1o@who.int
62,4470 Blaine Pass,Room 380,Santa Cruz,California,95064,36.9959,-122.0578,831-402-6299,mottosen1p@ucla.edu
63,885 Sunfield Way,6th Floor,Lynchburg,Virginia,24503,37.4376,-79.205,434-373-8457,ecuttings1q@state.tx.us
64,46529 Scoville Hill,12th Floor,Memphis,Tennessee,38136,35.2017,-89.9715,901-351-8477,hjoddins1r@dagondesign.com
65,13 Hanson Street,Room 1365,Trenton,New Jersey,08650,40.2805,-74.712,609-601-1456,onecolds1s@yale.edu
66,2065 Kinsman Avenue,Apt 197,Palm Bay,Florida,32909,27.9694,-80.6473,561-573-8411,mdominelli1t@de.vu
67,97673 Pearson Drive,5th Floor,Newark,New Jersey,07188,40.7918,-74.2452,862-420-8560,nvanarsdall1u@usda.gov
68,0412 Mccormick Crossing,Apt 413,Las Vegas,Nevada,89166,36.3265,-115.3398,702-317-3104,cparkins1v@ebay.co.uk
69,037 Karstens Drive,Apt 1881,New York City,New York,10099,40.7808,-73.9772,646-439-3482,lbendel1w@paginegialle.it
70,46 Arizona Center,Suite 90,Lake Worth,Florida,33467,26.6104,-80.1683,561-810-1321,bguyot1x@people.com.cn
71,22 Barby Way,Suite 23,Jackson,Mississippi,39216,32.3386,-90.1708,601-411-5777,tgwyneth1y@cyberchimps.com
72,807 Haas Point,16th Floor,Albany,New York,12227,42.6149,-73.9708,518-803-5871,rjillitt1z@chronoengine.com
73,24 Loftsgordon Road,Room 153,Sacramento,California,94297,38.3774,-121.4444,916-456-9182,jtraite20@cocolog-nifty.com
74,922 Upham Junction,Room 970,Birmingham,Alabama,35231,33.5446,-86.9292,205-986-6904,haxup21@nbcnews.com
75,6 Carberry Street,7th Floor,Houston,Texas,77025,29.6889,-95.4341,832-386-2188,fotham22@gravatar.com
76,5033 Mockingbird Point,Suite 23,Portland,Oregon,97296,45.5806,-122.3748,503-580-4820,mburgwyn23@aol.com
77,9 Derek Park,9th Floor,Pensacola,Florida,32595,30.6143,-87.2758,850-600-6612,dachromov24@mediafire.com
78,22 Hoepker Crossing,Suite 86,Pomona,California,91797,33.7866,-118.2987,909-690-7012,lcatherine25@bbc.co.uk
79,2814 Dennis Point,15th Floor,Nashville,Tennessee,37245,36.1866,-86.7852,615-902-4621,llandal26@netvibes.com
80,448 Toban Trail,7th Floor,Orlando,Florida,32854,28.5663,-81.2608,407-689-6867,kmacfadzean27@facebook.com
81,0 Novick Alley,PO Box 52592,Concord,California,94522,37.7772,-121.9554,925-398-9486,mstert28@godaddy.com
82,7193 Pine View Junction,PO Box 24177,Birmingham,Alabama,35290,33.5446,-86.9292,205-670-6268,mgarrie29@umn.edu
83,6 Buena Vista Way,Suite 9,Staten Island,New York,10310,40.6324,-74.1172,718-759-3266,fmardy2a@uol.com.br
84,4618 Hallows Point,Room 1620,Athens,Georgia,30610,33.9443,-83.3891,706-549-1578,lsewill2b@independent.co.uk
85,45652 Loomis Hill,Apt 160,Columbia,Missouri,65218,38.9033,-92.1022,573-366-1562,klinkin2c@phpbb.com
86,4 Grasskamp Alley,PO Box 21966,Los Angeles,California,90020,34.0665,-118.3022,213-300-5226,fshankland2d@acquirethisname.com
87,8 Melody Point,Room 1208,Anaheim,California,92825,33.8356,-117.9132,714-825-9625,fpeever2e@princeton.edu
88,783 Grasskamp Place,Apt 321,Hartford,Connecticut,06152,41.7918,-72.7188,860-179-8396,fkorn2f@apple.com
89,79279 Katie Point,PO Box 64307,Washington,District of Columbia,20530,38.8976,-77.027,202-405-9965,twilloughey2g@prweb.com
90,9 Ridgeway Avenue,Apt 1332,Lexington,Kentucky,40591,38.0283,-84.4715,859-312-7091,bnordass2h@people.com.cn
91,95 Grasskamp Drive,Apt 169,Spring,Texas,77388,30.0505,-95.4695,832-929-0390,mrubertelli2i@gmpg.org
92,323 Union Way,Apt 1139,El Paso,Texas,88535,31.6948,-106.3,915-742-0392,lhorstead2j@sphinn.com
93,1 Oriole Avenue,Room 1704,Portland,Oregon,97229,45.5483,-122.8276,503-344-8077,zbosenworth2k@youtu.be
94,9 Anzinger Trail,11th Floor,Bridgeport,Connecticut,06606,41.2091,-73.2086,203-797-5523,dbarwise2l@miitbeian.gov.cn
95,20783 Butternut Way,PO Box 75086,Minneapolis,Minnesota,55417,44.9054,-93.2361,612-990-9241,ehepher2m@google.pl
96,12 Mesta Plaza,PO Box 859,Nashville,Tennessee,37215,36.0986,-86.8219,615-368-8184,cpirt2n@imdb.com
97,1 Ruskin Road,9th Floor,Paterson,New Jersey,07544,41.0114,-74.3048,862-294-9947,rtrimbey2o@chronoengine.com
98,6 Calypso Street,PO Box 90144,Arlington,Texas,76004,32.7714,-97.2915,817-267-0623,plinner2p@desdev.cn
99,631 Sheridan Court,Suite 22,Tuscaloosa,Alabama,35405,33.1617,-87.5144,205-946-4850,tbernasek2q@mysql.com
100,5510 Spohn Drive,Suite 48,Sioux Falls,South Dakota,57198,43.6746,-96.7913,605-176-4488,tguest2r@netvibes.com
101,16 Sommers Avenue,Apt 1526,Lafayette,Louisiana,70505,30.2023,-92.0188,337-476-5428,lfruish2s@google.com
102,465 Fisk Point,Suite 50,Anderson,South Carolina,29625,34.5271,-82.7087,864-515-1158,ykuller2t@mit.edu
103,2256 Shoshone Road,Room 555,Baltimore,Maryland,21203,39.2847,-76.6205,443-312-7288,tandrew2u@businessweek.com
104,36694 Larry Road,Suite 76,Roanoke,Virginia,24004,37.2742,-79.9579,540-298-7007,sweatherdon2v@people.com.cn
105,0984 Farwell Street,Suite 33,Virginia Beach,Virginia,23464,36.7978,-76.1759,757-245-4855,btheodore2w@about.com
106,1533 Mallard Park,10th Floor,Pasadena,California,91125,33.7866,-118.2987,626-959-3295,lchurchard2x@mtv.com
107,1497 Washington Way,Room 806,Orlando,Florida,32803,28.5559,-81.3535,321-706-4013,ccaldecourt2y@wordpress.org
108,7483 Sunnyside Parkway,PO Box 15832,Woburn,Massachusetts,01813,42.4464,-71.4594,339-477-8398,flakeman2z@multiply.com
109,63244 Mockingbird Alley,14th Floor,Louisville,Kentucky,40210,38.2306,-85.7905,502-200-0042,slapworth30@squarespace.com
110,0 Jenifer Terrace,5th Floor,Chesapeake,Virginia,23324,36.8056,-76.2666,757-331-3568,soldaker31@harvard.edu
111,635 Di Loreto Alley,Suite 67,Decatur,Georgia,30033,33.8123,-84.2819,770-392-6713,apedler32@microsoft.com
112,94 Emmet Drive,Apt 1815,San Diego,California,92105,32.7423,-117.0947,619-528-1124,kaykroyd33@dot.gov
113,5 Manitowish Terrace,PO Box 52216,Chicago,Illinois,60691,41.8119,-87.6873,312-739-8483,jiannetti34@sbwire.com
114,54 John Wall Road,Apt 1788,Oklahoma City,Oklahoma,73179,35.4242,-97.6547,405-354-3606,abranchflower35@ask.com
115,51374 Banding Lane,Room 719,Atlanta,Georgia,30351,33.8444,-84.474,404-309-1409,wbreens36@sohu.com
116,9 Northland Parkway,Suite 28,Wichita Falls,Texas,76310,33.8581,-98.5755,940-593-0220,jaimer37@tumblr.com
117,85 Fisk Road,Suite 96,Seattle,Washington,98148,47.4441,-122.3249,253-331-1215,phandman38@gmpg.org
118,650 Browning Lane,PO Box 47381,Colorado Springs,Colorado,80925,38.7378,-104.6459,719-935-4557,awhitear39@flavors.me
119,9354 Utah Drive,Suite 59,Glendale,Arizona,85311,33.2765,-112.1872,602-355-7729,cworrell3a@jigsy.com
120,5 Leroy Plaza,12th Floor,Missoula,Montana,59806,47.116,-114.0498,406-666-2977,spregal3b@ihg.com
121,031 Lotheville Hill,Suite 13,Amarillo,Texas,79118,35.0763,-101.8349,806-111-6352,wchaffey3c@toplist.cz
122,876 Raven Crossing,PO Box 12264,Decatur,Georgia,30089,33.7749,-84.3046,678-344-5154,jwrettum3d@disqus.com
123,195 Mendota Point,Room 1506,Fort Lauderdale,Florida,33355,26.1457,-80.4483,754-884-4852,acomettoi3e@vimeo.com
124,08302 Union Avenue,1st Floor,Chattanooga,Tennessee,37416,35.0942,-85.1757,423-599-2165,mdeering3f@hubpages.com
125,24 Novick Alley,14th Floor,Portland,Oregon,97201,45.5078,-122.6897,503-426-8142,cainsworth3g@canalblog.com
126,1 Florence Point,Suite 28,Santa Barbara,California,93111,34.4453,-119.8025,805-174-0631,abeeton3h@accuweather.com
127,05021 American Drive,Suite 19,Kansas City,Missouri,64149,38.8606,-94.4636,816-410-0137,ccrowest3i@kickstarter.com
128,7 Washington Avenue,Apt 710,Reading,Pennsylvania,19605,40.3886,-75.9328,610-296-1424,bdearing3j@cbc.ca
129,51 Barby Terrace,19th Floor,Albany,New York,12237,42.6149,-73.9708,518-867-2775,mgoodings3k@europa.eu
130,05 Sloan Trail,PO Box 11196,Atlanta,Georgia,30311,33.723,-84.4702,770-810-1158,hmustoe3l@fema.gov
131,2 Red Cloud Terrace,Apt 472,Albany,New York,12227,42.6149,-73.9708,518-702-7417,dgrange3m@ebay.co.uk
132,73247 Meadow Valley Court,Room 228,Jacksonville,Florida,32215,30.2407,-81.893,904-890-9613,aloughrey3n@amazon.co.jp
133,01 Green Lane,17th Floor,Rochester,New York,14614,43.1558,-77.6142,585-666-3192,cdeverose3o@quantcast.com
134,50 Meadow Vale Parkway,PO Box 44974,New Hyde Park,New York,11044,40.7548,-73.6018,516-359-2432,egullivan3p@plala.or.jp
135,5 Hayes Crossing,Suite 69,Orlando,Florida,32854,28.5663,-81.2608,407-186-0947,pgilbride3q@hostgator.com
136,700 Kim Drive,Suite 50,Austin,Texas,78726,30.43,-97.8326,512-723-7719,apetr3r@blogs.com
137,643 Sutteridge Hill,Apt 218,Miami,Florida,33153,25.8655,-80.1936,786-104-4544,lburtt3s@foxnews.com
138,642 Texas Alley,Room 1667,San Francisco,California,94177,37.7848,-122.7278,415-158-1995,scurnucke3t@scribd.com
139,1 Leroy Street,Room 1090,Los Angeles,California,90101,33.7866,-118.2987,213-473-1979,tkisbey3u@tripadvisor.com
140,519 Becker Circle,PO Box 39139,Tacoma,Washington,98442,47.3081,-122.4185,253-221-1785,rsedgman3v@baidu.com
141,925 Caliangt Pass,15th Floor,Oklahoma City,Oklahoma,73147,35.5514,-97.4075,405-380-3874,hheffer3w@cloudflare.com
142,79542 Artisan Pass,20th Floor,Tyler,Texas,75705,32.3766,-95.1252,903-909-8420,lheaphy3x@1688.com
143,9969 Hansons Lane,PO Box 35267,Washington,District of Columbia,20414,38.884,-77.0221,202-903-8094,rcranny3y@comcast.net
144,06 Schurz Street,Suite 83,Marietta,Georgia,30066,34.0378,-84.5038,770-264-6846,gsaye3z@gizmodo.com
145,76791 Dawn Crossing,Suite 35,Rochester,New York,14683,43.286,-77.6843,585-204-6809,jeckersley40@princeton.edu
146,62312 Buhler Circle,1st Floor,Santa Rosa,California,95405,38.4386,-122.6727,707-399-3776,bhousecroft41@slate.com
147,3000 Jackson Place,Apt 1896,Baltimore,Maryland,21281,39.2847,-76.6205,410-229-9388,ragg42@vimeo.com
148,9875 Sloan Trail,Apt 1684,Tampa,Florida,33625,28.0726,-82.559,727-128-7828,tdurrance43@shutterfly.com
149,72 Pine View Terrace,Room 74,El Paso,Texas,88514,31.6948,-106.3,915-773-9972,gparfrey44@nhs.uk
150,05705 Thackeray Plaza,Room 1553,Milwaukee,Wisconsin,53205,43.0528,-87.9353,920-589-4300,pmaccracken45@eventbrite.com
151,2 Hooker Junction,Apt 852,Kansas City,Kansas,66105,39.085,-94.6356,913-392-4691,agiovannoni46@reference.com
152,096 Monterey Junction,PO Box 69829,Spartanburg,South Carolina,29305,35.1114,-82.1055,864-557-5369,ageard47@skyrock.com
153,2 Rigney Park,PO Box 26333,Chicago,Illinois,60609,41.8097,-87.6533,773-962-1815,arosensaft48@techcrunch.com
154,65 Garrison Street,17th Floor,Cincinnati,Ohio,45243,39.1848,-84.3448,513-806-5530,frignall49@barnesandnoble.com
155,61092 Boyd Junction,5th Floor,Arlington,Texas,76004,32.7714,-97.2915,817-946-2358,slinklet4a@salon.com
156,1972 Summer Ridge Way,Apt 816,Rockville,Maryland,20851,39.0763,-77.1234,240-120-1547,ngoodday4b@goo.gl
157,9 Division Road,Suite 62,Long Beach,California,90810,33.8193,-118.2325,562-987-3566,euphill4c@sohu.com
158,7 Fair Oaks Circle,Apt 482,Tyler,Texas,75710,32.3475,-95.3065,903-324-0422,lingarfill4d@mac.com
159,54550 Dahle Trail,Room 810,Henderson,Nevada,89074,36.0384,-115.0857,702-247-8889,wjephson4e@sogou.com
160,2597 Cody Hill,Suite 15,Minneapolis,Minnesota,55487,45.0159,-93.4719,612-309-9005,emccleod4f@sphinn.com
161,4755 Esker Crossing,Apt 496,Fresno,California,93726,36.7949,-119.7604,559-149-0831,bcorington4g@github.com
162,24 Stephen Trail,Apt 590,Migrate,Kentucky,41905,38.0638,-84.5027,502-277-9383,buglow4h@youtu.be
163,52249 Aberg Terrace,Room 528,Macon,Georgia,31205,32.8067,-83.6913,478-528-6862,mdanilishin4i@typepad.com
164,91072 Maryland Parkway,Suite 17,Newark,New Jersey,07195,40.7918,-74.2452,862-145-1955,jreinhart4j@cnbc.com
165,849 Southridge Alley,Apt 673,Inglewood,California,90398,33.7866,-118.2987,310-255-2245,mpaulin4k@omniture.com
166,76308 Melby Hill,Suite 76,Louisville,Kentucky,40215,38.1913,-85.7847,502-159-1145,jstowe4l@springer.com
167,83 Schlimgen Center,PO Box 74282,Tampa,Florida,33661,27.872,-82.4388,813-377-2857,wtopliss4m@newsvine.com
168,0091 Lerdahl Point,19th Floor,Evanston,Illinois,60208,42.0586,-87.6845,847-413-3371,asteger4n@nydailynews.com
169,0128 Loomis Avenue,4th Floor,Washington,District of Columbia,20442,38.896,-77.0177,202-181-1239,eferrey4o@cbc.ca
170,66450 Scoville Hill,5th Floor,Clearwater,Florida,33758,27.8918,-82.7248,813-464-1954,fdrohane4p@myspace.com
171,83083 Florence Hill,Suite 8,Des Moines,Iowa,50320,41.5487,-93.5827,515-154-9340,kingraham4q@indiegogo.com
172,6422 Continental Trail,Apt 459,Houston,Texas,77255,29.834,-95.4342,713-420-1230,rvolks4r@buzzfeed.com
173,0 Drewry Pass,Apt 1940,Memphis,Tennessee,38143,35.2017,-89.9715,901-714-2758,chair4s@go.com
174,46 Spenser Way,Room 988,Cincinnati,Ohio,45218,39.2663,-84.5221,513-106-4460,epippin4t@typepad.com
175,09 Roxbury Crossing,PO Box 49460,Cincinnati,Ohio,45228,39.0706,-84.4179,513-892-5873,mtomadoni4u@mail.ru
176,6 Westend Junction,Suite 77,New York City,New York,10045,40.7086,-74.0087,646-317-6767,dlelievre4v@ihg.com
177,4 Almo Circle,Room 1756,Schenectady,New York,12305,42.8161,-73.9398,518-316-3225,qoroan4w@4shared.com
178,9 Ronald Regan Court,Suite 21,Indianapolis,Indiana,46231,39.7038,-86.3029,317-426-8728,egolding4x@geocities.com
179,8670 Towne Circle,Suite 30,Portland,Oregon,97255,45.5806,-122.3748,971-868-9618,scoils4y@intel.com
180,3 Basil Way,Suite 73,Greensboro,North Carolina,27425,36.0807,-80.0244,336-115-5568,dpreston4z@engadget.com
181,97936 Sunbrook Plaza,5th Floor,Reading,Pennsylvania,19610,40.338,-75.978,610-989-0961,pmallinder50@cisco.com
182,6000 Pawling Alley,6th Floor,Flint,Michigan,48505,43.0634,-83.7001,810-589-8309,gschonfelder51@theguardian.com
183,2 Jenna Hill,Suite 14,Charleston,South Carolina,29424,32.7831,-79.937,843-238-7294,rfantin52@dion.ne.jp
184,6105 Monica Lane,PO Box 14798,Shreveport,Louisiana,71137,32.6076,-93.7526,318-902-5325,creiling53@cbsnews.com
185,68252 Loomis Lane,PO Box 33930,Long Beach,California,90831,33.7678,-118.1994,562-490-7875,wslimings54@dmoz.org
186,9928 Doe Crossing Circle,PO Box 26596,Oklahoma City,Oklahoma,73157,35.5514,-97.4075,405-938-9421,pkunz55@usda.gov
187,5 Donald Junction,Room 1772,Columbia,South Carolina,29208,33.9937,-81.0199,803-357-7861,mstadden56@auda.org.au
188,7332 Superior Road,17th Floor,Pittsburgh,Pennsylvania,15250,40.4344,-80.0248,412-657-9429,mraden57@biglobe.ne.jp
189,997 Mesta Road,4th Floor,New York City,New York,10125,40.7808,-73.9772,212-654-6509,tdudlestone58@about.com
190,05 Talisman Pass,Room 1450,Pasadena,California,91103,34.1669,-118.1551,323-255-1695,wmacellen59@cbc.ca
191,42 Mariners Cove Center,10th Floor,Seattle,Washington,98109,47.6339,-122.3476,360-593-4270,vivic5a@japanpost.jp
192,4 Buell Point,Suite 35,Alpharetta,Georgia,30022,34.0268,-84.2422,770-824-7321,mmathewson5b@yellowbook.com
193,87 Redwing Circle,2nd Floor,Orlando,Florida,32859,28.4429,-81.4026,407-858-7220,thelliar5c@theglobeandmail.com
194,25887 Melvin Point,PO Box 65322,Duluth,Georgia,30195,34.0047,-84.1532,678-537-4515,seubank5d@vistaprint.com
195,5 Kings Trail,Apt 1691,Savannah,Georgia,31422,31.9714,-81.0716,912-674-6869,gbubb5e@merriam-webster.com
196,319 Fairview Point,Suite 21,Lexington,Kentucky,40546,38.0283,-84.4715,859-475-8635,jbilling5f@tinypic.com
197,237 Morning Terrace,PO Box 61068,Myrtle Beach,South Carolina,29579,33.7377,-78.9787,843-851-3001,ohannah5g@aboutads.info
198,6 Walton Circle,20th Floor,San Diego,California,92196,33.0169,-116.846,619-958-4533,oreadwin5h@economist.com
199,5 Moulton Crossing,Suite 16,Fort Pierce,Florida,34981,27.4049,-80.3623,772-485-8985,vgilhooley5i@loc.gov
200,4 Di Loreto Street,Room 347,Alhambra,California,91841,33.7866,-118.2987,626-953-0960,kmcbeth5j@dailymail.co.uk
201,9 Monica Court,Room 256,Olympia,Washington,98516,47.1126,-122.7794,253-743-2819,sbattleson5k@mashable.com
202,799 Commercial Trail,Apt 3,Madison,Wisconsin,53790,43.0696,-89.4239,608-552-6552,lchattoe5l@who.int
203,2925 Annamark Hill,Suite 67,Flint,Michigan,48505,43.0634,-83.7001,810-749-9407,mflett5m@netvibes.com
204,42 International Hill,5th Floor,Boise,Idaho,83727,43.4599,-116.244,208-995-1750,tfandrey5n@trellian.com
205,3469 Springs Hill,PO Box 93633,Albany,New York,12237,42.6149,-73.9708,518-992-3823,lpettman5o@jalbum.net
206,1505 Johnson Terrace,Suite 53,Honolulu,Hawaii,96820,21.351,-157.8795,808-913-5387,eformigli5p@soup.io
207,3176 Forest Run Plaza,Room 1213,North Little Rock,Arkansas,72118,34.8337,-92.3289,501-204-5571,cbalint5q@phoca.cz
208,11181 Onsgard Road,PO Box 88085,Jacksonville,Florida,32236,30.3449,-81.6831,904-186-5408,dladdle5r@about.com
209,81 Esker Crossing,14th Floor,Fresno,California,93773,36.7464,-119.6397,559-926-1987,jtuther5s@google.com.br
210,8552 Judy Place,Suite 63,Clearwater,Florida,33763,28.0173,-82.7461,727-321-9055,tsharple5t@disqus.com
211,7885 Reinke Terrace,Suite 84,New York City,New York,10099,40.7808,-73.9772,646-484-7309,nnewvill5u@sun.com
212,24 Beilfuss Point,PO Box 69404,Jamaica,New York,11480,40.6914,-73.8061,917-305-6966,awapol5v@digg.com
213,72 Holmberg Center,Apt 179,Des Moines,Iowa,50362,41.6727,-93.5722,515-646-3387,tdepaoli5w@boston.com
214,693 Oriole Hill,15th Floor,Longview,Texas,75605,32.5547,-94.7767,903-821-3161,cosgarby5x@wordpress.org
215,9 Burning Wood Park,Suite 33,Apache Junction,Arizona,85219,33.3616,-111.2795,480-318-7147,rcron5y@alexa.com
216,33198 Dakota Avenue,20th Floor,Minneapolis,Minnesota,55412,45.0242,-93.302,612-108-8828,ydurdy5z@huffingtonpost.com
217,316 Arkansas Alley,Apt 1787,Dallas,Texas,75226,32.7887,-96.7676,972-129-6748,jdownton60@edublogs.org
218,8000 Carioca Lane,15th Floor,Erie,Pennsylvania,16522,42.1827,-80.0649,814-828-4802,tstapforth61@over-blog.com
219,3 Gateway Place,20th Floor,Saginaw,Michigan,48609,43.3869,-84.0926,989-760-3309,jmeaking62@163.com
220,425 Maple Drive,Suite 34,Denton,Texas,76205,33.1903,-97.1282,940-958-3278,gbennough63@people.com.cn
221,189 Basil Pass,Suite 49,Tulsa,Oklahoma,74193,36.1398,-96.0297,918-961-5554,cproctor64@hatena.ne.jp
222,802 Pennsylvania Drive,PO Box 69387,Frankfort,Kentucky,40618,38.2341,-84.8748,502-383-5930,hwardlaw65@aol.com
223,614 Northport Center,2nd Floor,Chicago,Illinois,60646,41.993,-87.7596,847-887-3848,evlahos66@cafepress.com
224,757 Hagan Junction,Suite 39,Colorado Springs,Colorado,80930,38.8289,-104.5269,719-747-6367,clages67@tinyurl.com
225,48821 Northland Court,Room 250,Austin,Texas,78710,30.352,-97.7151,512-987-9927,mancliff68@cocolog-nifty.com
226,87370 Namekagon Point,5th Floor,Young America,Minnesota,55557,44.8055,-93.7665,952-177-8909,abelasco69@edublogs.org
227,1 Loftsgordon Street,18th Floor,Roanoke,Virginia,24024,37.2742,-79.9579,540-647-7231,dmccorley6a@microsoft.com
228,820 Magdeline Junction,Apt 25,El Paso,Texas,79950,31.6948,-106.3,915-820-2669,olepoidevin6b@multiply.com
229,33 4th Drive,7th Floor,Pasadena,California,91131,33.7866,-118.2987,626-920-2802,ldaubney6c@webnode.com
230,914 Lukken Lane,PO Box 44438,Chicago,Illinois,60674,41.8119,-87.6873,312-267-6233,jpollastro6d@noaa.gov
231,3 Fuller Street,Apt 720,Bronx,New York,10454,40.8085,-73.9198,718-313-5609,mhaensel6e@aol.com
232,64539 Shasta Point,PO Box 89565,Chicago,Illinois,60681,41.8119,-87.6873,312-198-5129,agabbotts6f@forbes.com
233,4678 Stuart Hill,Apt 824,Louisville,Kentucky,40256,38.189,-85.6768,502-393-7126,cdedmam6g@rediff.com
234,4274 Oak Road,Room 1354,Los Angeles,California,90025,34.0447,-118.4487,323-638-0568,ttidcomb6h@bluehost.com
235,1936 Mockingbird Plaza,Room 1523,Chicago,Illinois,60697,41.8119,-87.6873,312-852-4544,nposnette6i@joomla.org
236,6 Sage Circle,Room 1875,Kansas City,Missouri,64101,39.1024,-94.5986,816-685-1161,hrosenzveig6j@dot.gov
237,28441 Toban Lane,Suite 42,Phoenix,Arizona,85062,33.2765,-112.1872,602-420-2325,akondrat6k@sogou.com
238,47 Delaware Terrace,14th Floor,Saint Louis,Missouri,63143,38.6111,-90.3225,314-346-5090,wprovest6l@microsoft.com
239,33 Victoria Crossing,Suite 63,Young America,Minnesota,55557,44.8055,-93.7665,952-674-9992,mtitchen6m@indiegogo.com
240,481 Becker Junction,Apt 67,San Diego,California,92145,32.8891,-117.1005,858-731-9888,tgilffillan6n@hc360.com
241,7 Homewood Avenue,Room 1613,San Jose,California,95123,37.2458,-121.8306,408-827-7718,ademitri6o@etsy.com
242,93 Eliot Way,6th Floor,Loretto,Minnesota,55598,45.0159,-93.4719,763-907-6235,jtellesson6p@privacy.gov.au
243,5 Sachtjen Lane,9th Floor,Fort Lauderdale,Florida,33305,26.1497,-80.1229,954-320-7726,mpau6q@ca.gov
244,4972 Maple Wood Lane,Apt 1247,Savannah,Georgia,31405,32.0391,-81.1242,912-247-1793,akernar6r@sakura.ne.jp
245,5201 Shelley Trail,Room 200,Birmingham,Alabama,35244,33.3538,-86.8254,205-539-4577,mhaglington6s@odnoklassniki.ru
246,63431 Summerview Street,Suite 8,Fresno,California,93773,36.7464,-119.6397,559-976-6358,gnicklen6t@blogger.com
247,1569 7th Point,2nd Floor,Salt Lake City,Utah,84189,40.6681,-111.9083,801-848-4153,rdelayglesias6u@lulu.com
248,0048 Sycamore Pass,Apt 1594,Austin,Texas,78744,30.1876,-97.7472,361-210-2608,pcoffee6v@netscape.com
249,170 Rusk Court,Room 385,Mesquite,Texas,75185,32.7403,-96.5618,214-123-3177,jspincks6w@usda.gov
250,8 Vera Road,PO Box 70980,Baltimore,Maryland,21282,39.439,-76.5921,410-710-8251,ucourteney6x@hp.com
251,77574 Maple Point,PO Box 43590,Boston,Massachusetts,02104,42.3389,-70.9196,318-398-1505,hcarnalan6y@unblog.fr
252,932 Rutledge Hill,Room 701,Fort Lauderdale,Florida,33315,26.0989,-80.1541,954-384-4176,emaidlow6z@bigcartel.com
253,91128 Manufacturers Center,PO Box 61301,San Antonio,Texas,78255,29.6701,-98.6873,210-287-2108,pclaxson70@bloglovin.com
254,166 Ohio Circle,10th Floor,Jeffersonville,Indiana,47134,38.2868,-85.7321,812-836-8614,acraft71@utexas.edu
255,10331 5th Lane,Suite 81,Washington,District of Columbia,20067,38.8933,-77.0146,202-228-6604,cspyby72@google.com.au
256,3 Linden Lane,Apt 1456,Hartford,Connecticut,06105,41.7691,-72.701,860-121-7504,mdahlback73@ca.gov
257,6444 Myrtle Road,PO Box 38124,Atlanta,Georgia,31136,33.7473,-84.3824,404-722-0253,isamsin74@disqus.com
258,173 Morrow Drive,Suite 88,Fort Worth,Texas,76147,32.7714,-97.2915,817-325-2576,eogavin75@nih.gov
259,5165 Weeping Birch Point,3rd Floor,Scottsdale,Arizona,85255,33.6968,-111.8892,480-856-1260,yharnott76@army.mil
260,5511 Maple Wood Street,Apt 1710,Johnstown,Pennsylvania,15906,40.3522,-78.9383,814-652-6375,jcanto77@g.co
261,044 Ruskin Drive,Apt 1268,Albany,New York,12222,42.6853,-73.8253,518-903-2163,folenin78@indiatimes.com
262,643 Lighthouse Bay Parkway,Suite 71,Worcester,Massachusetts,01654,42.3648,-71.8969,508-371-8688,hselman79@blogger.com
263,72595 Stephen Court,PO Box 92091,Englewood,Colorado,80150,39.7388,-104.4083,303-998-8342,mabbay7a@arstechnica.com
264,12883 Ronald Regan Street,Apt 457,North Hollywood,California,91606,34.1872,-118.3865,818-431-2581,arumbold7b@e-recht24.de
265,2 Union Park,Suite 9,Salt Lake City,Utah,84145,40.6681,-111.9083,801-161-1768,rfalck7c@51.la
266,7 Gerald Circle,PO Box 41268,Denver,Colorado,80209,39.7074,-104.9686,720-116-2112,tsekulla7d@opensource.org
267,68 Maple Wood Drive,PO Box 35811,Cambridge,Massachusetts,02142,42.362,-71.083,508-646-4824,avalois7e@e-recht24.de
268,02945 Vidon Pass,Apt 45,Harrisburg,Pennsylvania,17126,40.2618,-76.88,717-597-6339,rhaith7f@stanford.edu
269,00740 Bultman Road,19th Floor,Jacksonville,Florida,32277,30.3704,-81.5864,904-252-4119,lwitchalls7g@linkedin.com
270,0564 Kennedy Crossing,12th Floor,Sacramento,California,94297,38.3774,-121.4444,916-476-9622,tcammis7h@cloudflare.com
271,4 Service Way,Apt 1160,Sioux Falls,South Dakota,57105,43.524,-96.7341,605-243-2240,srowsell7i@globo.com
272,2 Elgar Lane,PO Box 72406,Springfield,Illinois,62776,39.7495,-89.606,217-925-2728,gcrampin7j@microsoft.com
273,721 Evergreen Road,Apt 371,Baltimore,Maryland,21211,39.3316,-76.6336,443-942-4156,sextill7k@flickr.com
274,5825 Farmco Center,Room 1064,Denver,Colorado,80249,39.7783,-104.7556,303-471-6387,ebatsford7l@archive.org
275,01852 Bellgrove Point,Room 234,Fort Lauderdale,Florida,33336,26.1219,-80.1436,754-616-5448,pbuscher7m@mozilla.com
276,949 Cottonwood Avenue,Apt 730,Seattle,Washington,98175,47.7161,-122.3004,206-684-0921,mschenfisch7n@jigsy.com
277,9805 Hauk Road,Room 1864,Aiken,South Carolina,29805,33.6993,-81.6465,803-787-1265,nhedlestone7o@xrea.com
278,6 Thackeray Terrace,9th Floor,Denver,Colorado,80235,39.6472,-105.0795,720-633-0794,grosendorf7p@google.co.jp
279,03 Bluestem Pass,Apt 925,Norfolk,Virginia,23504,36.8586,-76.2686,757-470-2751,tkrystof7q@godaddy.com
280,61 Mcbride Drive,Suite 23,Youngstown,Ohio,44505,41.1257,-80.6277,330-992-6220,mboyett7r@chronoengine.com
281,6136 Manley Way,Room 1145,Stockton,California,95219,38.01,-121.3698,209-302-9325,drahlof7s@sciencedaily.com
282,90516 Summerview Terrace,7th Floor,Memphis,Tennessee,38131,35.0664,-89.9921,901-394-2062,tspriggs7t@cyberchimps.com
283,14588 Warrior Terrace,Suite 43,White Plains,New York,10633,41.119,-73.733,845-811-0589,lchetwin7u@icq.com
284,228 Schiller Point,Room 41,Fresno,California,93726,36.7949,-119.7604,209-818-6689,cwilacot7v@ibm.com
285,71 Spaight Terrace,Room 270,Jackson,Mississippi,39204,32.2832,-90.2306,601-137-5777,oredhills7w@google.es
286,2 Brickson Park Alley,15th Floor,Littleton,Colorado,80161,39.7388,-104.4083,720-740-9248,jlabroue7x@usnews.com
287,0342 Scoville Plaza,Room 1610,Inglewood,California,90305,33.9583,-118.3258,323-527-7228,spadrick7y@histats.com
288,84 Declaration Court,Suite 60,Trenton,New Jersey,08650,40.2805,-74.712,609-650-8147,acoast7z@seesaa.net
289,2354 Maywood Circle,Suite 83,Harrisburg,Pennsylvania,17140,40.3086,-76.8464,717-706-0845,kpettengell80@jalbum.net
290,30816 Dovetail Court,8th Floor,Tampa,Florida,33673,27.872,-82.4388,813-960-3354,tdahlgren81@fc2.com
291,0 Bobwhite Terrace,PO Box 79937,Santa Clara,California,95054,37.3924,-121.9623,650-265-7009,abisset82@canalblog.com
292,6 Forster Pass,Room 1959,Washington,District of Columbia,20397,38.9164,-76.9948,202-578-5378,klammert83@psu.edu
293,00 Petterle Hill,PO Box 5832,Winston Salem,North Carolina,27116,36.0275,-80.2073,336-368-0332,bgantlett84@mapy.cz
294,88 Marquette Junction,7th Floor,Washington,District of Columbia,20470,38.8933,-77.0146,202-102-9230,cdannel85@ifeng.com
295,5 Oak Valley Lane,Suite 87,Madison,Wisconsin,53716,43.0631,-89.3133,608-115-8608,afitch86@webmd.com
296,2 Clove Park,PO Box 17028,San Bernardino,California,92405,34.1446,-117.3013,909-335-9098,mcrocket87@dot.gov
297,37839 Monument Hill,Suite 41,Montgomery,Alabama,36125,32.2334,-86.2085,334-458-8150,kshacklady88@google.ru
298,996 Dayton Place,10th Floor,Flushing,New York,11355,40.7536,-73.8226,718-347-0167,smoorrud89@oakley.com
299,1 Stephen Plaza,Room 1220,Marietta,Georgia,30061,33.9328,-84.556,770-547-5226,edaniels8a@reddit.com
300,66887 Loeprich Terrace,Apt 206,South Bend,Indiana,46699,41.5968,-86.293,574-196-1666,mdarrigrand8b@sohu.com
301,40765 Pierstorff Drive,Apt 1413,Birmingham,Alabama,35285,33.5446,-86.9292,205-438-7534,aaronowitz8c@timesonline.co.uk
302,850 Pearson Pass,Suite 97,Chicago,Illinois,60657,41.9399,-87.6528,773-582-3741,ahockell8d@prlog.org
303,32932 Hanson Crossing,PO Box 85235,Tallahassee,Florida,32304,30.4478,-84.3211,850-673-6102,jbartlett8e@whitehouse.gov
304,68347 Moose Lane,Room 1896,Denver,Colorado,80299,39.7388,-104.4083,720-387-1250,rbeavis8f@nytimes.com
305,6 Cody Point,Room 1387,Pocatello,Idaho,83206,42.6395,-112.3138,208-378-1097,pambler8g@java.com
306,4390 Artisan Street,Suite 7,Omaha,Nebraska,68105,41.2435,-95.9629,402-996-1531,jmcelmurray8h@spiegel.de
307,2776 Sommers Parkway,Apt 617,Miami,Florida,33283,25.5584,-80.4582,305-285-8335,mjorge8i@geocities.com
308,33 Eagan Pass,PO Box 85350,Atlanta,Georgia,30380,33.8444,-84.474,404-759-1901,ftimeby8j@timesonline.co.uk
309,2 Hayes Street,Suite 69,Lafayette,Louisiana,70593,30.2081,-92.0951,337-521-9034,hmaccole8k@uiuc.edu
310,8 Stuart Road,Apt 1136,Kansas City,Missouri,64149,38.8606,-94.4636,816-660-9878,kesch8l@blinklist.com
311,26191 Jay Avenue,Apt 28,Pasadena,California,91117,33.7866,-118.2987,626-816-8056,ewerrit8m@cnet.com
312,85 Loeprich Parkway,7th Floor,Suffolk,Virginia,23436,36.8926,-76.5142,757-296-0861,mgameson8n@imdb.com
313,34915 Independence Drive,Room 1811,Salt Lake City,Utah,84199,40.7259,-111.9394,801-546-6268,astruss8o@tamu.edu
314,19 Karstens Drive,Suite 17,Arlington,Texas,76096,32.7714,-97.2915,214-418-5016,czanetti8p@hhs.gov
315,00 Nancy Drive,Apt 816,Boulder,Colorado,80310,40.0878,-105.3735,303-481-3096,icollocott8q@icio.us
316,2873 Maple Park,12th Floor,Detroit,Michigan,48211,42.3809,-83.0409,810-499-2134,urizzini8r@europa.eu
317,463 Prairieview Circle,15th Floor,South Bend,Indiana,46634,41.5968,-86.293,574-410-8960,dkinneally8s@cam.ac.uk
318,7301 Hazelcrest Trail,Suite 99,Cedar Rapids,Iowa,52410,42.0794,-91.5992,319-200-8014,crableau8t@amazon.com
319,562 6th Point,Suite 49,Phoenix,Arizona,85010,33.2765,-112.1872,602-818-3128,harmiger8u@statcounter.com
320,58314 Mosinee Trail,Apt 1512,Racine,Wisconsin,53405,42.7161,-87.8233,262-241-6034,wjugging8v@elegantthemes.com
321,63512 Summerview Alley,Room 1919,Saint Louis,Missouri,63196,38.6531,-90.2435,314-608-5547,bsmithin8w@w3.org
322,4032 Hazelcrest Pass,PO Box 14599,Johnson City,Tennessee,37605,36.3158,-82.3838,423-804-3169,dlethieulier8x@prnewswire.com
323,192 Anzinger Way,PO Box 99740,Springfield,Illinois,62718,39.778,-89.6466,217-853-1524,hdeighan8y@twitter.com
324,90 Waywood Court,15th Floor,Arlington,Texas,76016,32.6889,-97.1905,817-545-5717,kclarey8z@tmall.com
325,02 Spaight Trail,Room 443,Greensboro,North Carolina,27404,36.0807,-80.0244,336-849-6917,gglasper90@upenn.edu
326,38488 Village Green Place,Suite 36,Milwaukee,Wisconsin,53285,43.0174,-87.5697,414-223-8694,neggar91@phpbb.com
327,916 Orin Lane,PO Box 3717,Chicago,Illinois,60697,41.8119,-87.6873,312-248-3931,kspick92@merriam-webster.com
328,392 Kingsford Street,Apt 842,Montgomery,Alabama,36114,32.404,-86.2539,334-147-7880,ecordero93@globo.com
329,51 East Court,20th Floor,Dallas,Texas,75241,32.6722,-96.7774,972-652-9950,fhouldcroft94@walmart.com
330,876 Fair Oaks Lane,Suite 80,Waterbury,Connecticut,06721,41.3657,-72.9275,203-601-6513,oschinetti95@ted.com
331,50256 Novick Road,4th Floor,Richmond,Virginia,23285,37.5242,-77.4932,804-867-4791,rmarcum96@timesonline.co.uk
332,1127 Pine View Lane,Room 188,Los Angeles,California,90030,33.7866,-118.2987,213-444-1380,kbeamand97@nba.com
333,9 Spohn Place,Apt 1764,El Paso,Texas,88579,31.6948,-106.3,915-493-3677,hpoad98@1und1.de
334,9 Forest Center,Apt 1020,Santa Fe,New Mexico,87592,35.5212,-105.9818,505-214-5678,ngrocott99@jalbum.net
335,3 Norway Maple Point,Room 1544,Salt Lake City,Utah,84189,40.6681,-111.9083,801-465-7286,dbooi9a@moonfruit.com
336,9 Maple Wood Park,Suite 95,Erie,Pennsylvania,16534,42.1827,-80.0649,814-743-5762,fdumbrell9b@mediafire.com
337,5 Cascade Street,Room 379,Oakland,California,94616,37.8044,-122.2698,415-412-4703,spetracek9c@surveymonkey.com
338,48 Derek Center,PO Box 84404,Las Vegas,Nevada,89193,35.9279,-114.9721,702-766-8594,hmeineck9d@tiny.cc
339,25 Dawn Street,Room 180,Huntington,West Virginia,25705,38.4096,-82.369,304-225-2353,rpetett9e@51.la
340,724 Orin Alley,Apt 1373,Memphis,Tennessee,38126,35.1255,-90.0424,901-398-3446,sheinzler9f@earthlink.net
341,3 Emmet Crossing,Suite 21,Charlotte,North Carolina,28278,35.2072,-80.9568,704-584-3209,aplumm9g@miitbeian.gov.cn
342,3662 Old Shore Plaza,PO Box 44370,Boulder,Colorado,80305,39.9807,-105.2531,303-377-1682,jlongthorne9h@usatoday.com
343,677 Rockefeller Court,PO Box 60939,Portland,Oregon,97206,45.484,-122.5973,503-762-3537,lcorthes9i@deliciousdays.com
344,082 Stoughton Trail,Apt 106,Hartford,Connecticut,06120,41.786,-72.6758,860-652-6267,akillick9j@wikipedia.org
345,87 Dayton Center,Room 1849,Albuquerque,New Mexico,87180,35.0443,-106.6729,505-899-3691,rroll9k@blogtalkradio.com
346,88235 Stang Parkway,20th Floor,Atlanta,Georgia,31165,33.7629,-84.4226,404-673-6235,ecurwood9l@wired.com
347,3689 Birchwood Junction,Apt 34,Norfolk,Virginia,23551,36.9312,-76.2397,757-676-4492,ecorah9m@goo.gl
348,6513 Bowman Lane,Room 951,Houston,Texas,77025,29.6889,-95.4341,832-552-2920,olittler9n@nationalgeographic.com
349,75376 Boyd Junction,Apt 607,Mobile,Alabama,36610,30.7309,-88.0789,251-993-2444,nmalimoe9o@imdb.com
350,0573 Logan Place,9th Floor,Manassas,Virginia,22111,38.7202,-77.4391,434-894-2599,messlement9p@sfgate.com
351,4624 Gina Road,Apt 1149,Frankfort,Kentucky,40618,38.2341,-84.8748,502-231-7727,adowdam9q@webmd.com
352,1656 Hanson Avenue,PO Box 33854,Pittsburgh,Pennsylvania,15235,40.4598,-79.8224,412-866-4876,bgrinyov9r@163.com
353,936 Arizona Circle,PO Box 44814,San Diego,California,92191,33.0169,-116.846,619-852-1977,adunthorne9s@artisteer.com
354,51981 Kropf Lane,20th Floor,Charlotte,North Carolina,28225,35.26,-80.8042,704-373-4145,afairbridge9t@vimeo.com
355,85749 Delaware Plaza,PO Box 9303,Bethesda,Maryland,20892,39.0024,-77.1034,301-134-2339,fmulleary9u@squarespace.com
356,43 Division Trail,Suite 48,Arlington,Virginia,22205,38.8836,-77.1395,571-483-3082,hhinstock9v@google.com.br
357,12 Straubel Plaza,Suite 70,North Little Rock,Arkansas,72199,34.8272,-92.2847,501-762-6025,emaccorley9w@bluehost.com
358,377 Prentice Center,Apt 1720,Tucson,Arizona,85743,32.3366,-111.1771,520-853-3049,ndurn9x@illinois.edu
359,6 Upham Circle,Room 1631,Orange,California,92862,33.7915,-117.714,714-232-1465,gsteen9y@digg.com
360,06 Barnett Center,Apt 309,Phoenix,Arizona,85072,33.2765,-112.1872,602-667-8907,ugirardi9z@dedecms.com
361,70 Memorial Drive,Suite 48,Los Angeles,California,90055,33.7866,-118.2987,213-547-2122,tjukubczaka0@answers.com
362,965 Warrior Avenue,PO Box 50228,Phoenix,Arizona,85067,33.2765,-112.1872,602-659-4983,tsheermana1@is.gd
363,0 Rowland Park,PO Box 10604,San Antonio,Texas,78215,29.4413,-98.4793,210-954-3549,eeustisa2@irs.gov
364,7 School Road,Room 1983,Orlando,Florida,32808,28.5803,-81.4396,407-102-7659,kmacgruera3@usgs.gov
365,73503 Mcbride Trail,Apt 1727,Atlanta,Georgia,30323,33.8444,-84.474,678-707-4622,dinglesenta4@addtoany.com
366,92 Rutledge Drive,4th Floor,Sacramento,California,95838,38.6406,-121.444,916-875-8431,hsyslanda5@amazon.com
367,588 American Ash Junction,Apt 1618,Charleston,West Virginia,25321,38.2968,-81.5547,304-180-1176,mcazina6@alexa.com
368,260 Derek Alley,Suite 95,Bloomington,Illinois,61709,40.4614,-88.953,309-380-4785,cbulfoota7@networkadvertising.org
369,3 Vermont Road,Apt 1347,Cincinnati,Ohio,45238,39.1092,-84.6108,513-826-1779,sflatmana8@51.la
370,62 Stang Crossing,Room 1128,Springfield,Massachusetts,01105,42.0999,-72.5783,413-687-1059,balleburtona9@imdb.com
371,2 Gulseth Park,Room 1222,Wilmington,North Carolina,28405,34.2651,-77.867,910-490-4620,plahrsaa@princeton.edu
372,70027 Mcbride Avenue,Suite 86,Cincinnati,Ohio,45228,39.0706,-84.4179,513-142-4507,cfisbeyab@huffingtonpost.com
373,6410 Oriole Trail,PO Box 29987,Waltham,Massachusetts,02453,42.3654,-71.2316,617-193-1120,cgiggac@dagondesign.com
374,27626 Westport Place,Room 1360,Charlotte,North Carolina,28272,35.26,-80.8042,704-247-6251,cjuryad@usnews.com
375,360 Carey Lane,Suite 37,Tucson,Arizona,85748,32.215,-110.7758,520-106-8544,balfae@wikia.com
376,19 Katie Way,PO Box 30985,Bakersfield,California,93386,35.2944,-118.9052,661-332-8097,amccheyneaf@indiegogo.com
377,26 Nancy Way,Suite 25,Boulder,Colorado,80328,40.0878,-105.3735,303-341-0404,ctimmensag@furl.net
378,4332 Kim Parkway,Room 698,Madison,Wisconsin,53785,43.0696,-89.4239,608-608-9171,eeddiesah@last.fm
379,30 Logan Park,16th Floor,Warren,Michigan,48092,42.5125,-83.0643,810-493-8246,vchurchlowai@omniture.com
380,08 Buhler Street,PO Box 96546,Indianapolis,Indiana,46216,39.8647,-86.0136,317-624-7413,aaishfordaj@icio.us
381,8 Fairview Terrace,Suite 26,Greensboro,North Carolina,27409,36.0777,-79.9086,336-299-8512,psuthworthak@nhs.uk
382,61 Express Place,Apt 1401,Saint Paul,Minnesota,55123,44.806,-93.1409,651-717-2217,wwookeyal@1688.com
383,55 Elgar Place,17th Floor,Fort Myers,Florida,33906,26.5529,-81.9486,239-799-6141,crabjohnsam@cbc.ca
384,7948 Buhler Way,Room 1438,Sioux Falls,South Dakota,57193,43.6746,-96.7913,605-838-1491,makessan@ebay.co.uk
385,872 Roxbury Road,6th Floor,Burbank,California,91520,34.1869,-118.348,626-447-9327,kpeplayao@myspace.com
386,0667 Sycamore Avenue,14th Floor,Tyler,Texas,75710,32.3475,-95.3065,903-241-0004,rredparthap@t.co
387,105 Fordem Pass,Suite 65,Los Angeles,California,90020,34.0665,-118.3022,562-792-5153,clissemoreaq@sakura.ne.jp
388,0729 Coleman Park,Suite 34,Little Rock,Arkansas,72215,34.7519,-92.3925,501-203-6702,abrunickear@people.com.cn
389,38 Bunting Circle,Room 888,Colorado Springs,Colorado,80905,38.8377,-104.837,719-300-8904,fhadwenas@aboutads.info
390,98701 Old Shore Terrace,2nd Floor,Minneapolis,Minnesota,55441,45.0058,-93.4193,651-793-9913,sgaisfordat@state.gov
391,6 Arrowood Avenue,Apt 1722,Chicago,Illinois,60630,41.9699,-87.7603,773-895-1875,emechemau@slate.com
392,24 Nevada Avenue,PO Box 42434,Merrifield,Virginia,22119,38.8318,-77.2888,571-510-9321,layerstav@indiatimes.com
393,09443 Swallow Alley,Apt 1603,Richmond,Virginia,23228,37.625,-77.4959,804-565-8983,orittmeieraw@chron.com
394,5855 Dixon Avenue,Room 576,Saint Petersburg,Florida,33710,27.7898,-82.7243,727-854-3021,kdrysdallax@mapquest.com
395,06995 Monica Terrace,Room 1472,Albany,New York,12222,42.6853,-73.8253,518-124-4756,hcomeray@comcast.net
396,898 Del Sol Terrace,Apt 1628,Rockford,Illinois,61105,42.3254,-89.1705,815-661-6296,lmonshallaz@paginegialle.it
397,061 Bunker Hill Junction,17th Floor,Indianapolis,Indiana,46278,39.8726,-86.2768,317-868-9078,apattieb0@clickbank.net
398,905 Heffernan Plaza,14th Floor,San Jose,California,95160,37.2187,-121.8601,408-645-1637,rwortb1@wix.com
399,068 Novick Drive,Apt 1702,Santa Monica,California,90405,34.01,-118.4717,310-161-0569,balasdairb2@yellowbook.com
400,28533 Sachtjen Avenue,Apt 1939,Des Moines,Iowa,50362,41.6727,-93.5722,515-391-9162,hmondayb3@senate.gov
401,005 Fremont Crossing,Apt 1814,Denver,Colorado,80262,39.731,-104.9384,303-878-7946,tanthesb4@economist.com
402,758 Corscot Parkway,Room 1141,Washington,District of Columbia,20088,38.8933,-77.0146,202-992-1713,ctrebbleb5@wunderground.com
403,0 Waywood Street,6th Floor,Juneau,Alaska,99812,58.3271,-134.4742,907-350-8960,bcomizzolib6@netscape.com
404,9 Forster Lane,Suite 47,Torrance,California,90510,33.7866,-118.2987,818-642-8063,aloudenb7@wsj.com
405,50882 Forest Dale Terrace,10th Floor,Hyattsville,Maryland,20784,38.9513,-76.8958,301-474-8877,abarenseb8@etsy.com
406,5928 Tennyson Lane,Apt 1155,Colorado Springs,Colorado,80905,38.8377,-104.837,719-685-3165,ctymb9@quantcast.com
407,74 Golf View Hill,PO Box 92430,New York City,New York,10099,40.7808,-73.9772,646-271-4760,zchurchmanba@godaddy.com
408,4 Ridgeway Alley,Suite 23,Newton,Massachusetts,02162,42.3319,-71.254,508-104-3252,sadaminibb@wix.com
409,6099 Crownhardt Drive,PO Box 88198,Houston,Texas,77095,29.8941,-95.6481,832-903-7904,epidgleybc@ow.ly
410,9 Nobel Junction,Apt 30,Terre Haute,Indiana,47805,39.5327,-87.3255,812-543-2675,cschwartzbd@unicef.org
411,807 Crownhardt Lane,Room 723,Columbus,Ohio,43226,39.969,-83.0114,614-294-1888,candresbe@theatlantic.com
412,4 Mitchell Center,Apt 1526,Huntington,West Virginia,25726,38.4134,-82.2774,304-547-3207,cpetrovbf@wikipedia.org
413,39153 Carioca Trail,Room 40,Canton,Ohio,44710,40.7911,-81.4169,330-424-9283,kcroftsbg@merriam-webster.com
414,00 Donald Avenue,Suite 94,Fort Myers,Florida,33994,26.5529,-81.9486,239-895-0076,ldesforgesbh@ihg.com
415,13150 Mallory Lane,Suite 9,Utica,New York,13505,43.0872,-75.2603,315-547-3652,operegrinebi@discuz.net
416,8163 Blaine Alley,PO Box 3257,Augusta,Georgia,30911,33.386,-82.091,706-622-2584,gmobiusbj@whitehouse.gov
417,946 Westend Circle,Apt 1500,Chicago,Illinois,60619,41.7458,-87.6054,312-301-4023,nkilbeybk@java.com
418,901 Basil Junction,PO Box 93656,Athens,Georgia,30605,33.9321,-83.3525,706-851-3048,apiersonbl@php.net
419,98616 Schmedeman Drive,Room 1954,Beaverton,Oregon,97075,45.5486,-123.1147,503-959-2521,mbecerrobm@mashable.com
420,25037 Vera Hill,Room 1479,Wilkes Barre,Pennsylvania,18706,41.2044,-75.9113,570-594-2166,skubiakbn@posterous.com
421,924 Meadow Valley Way,Room 1042,Greensboro,North Carolina,27404,36.0807,-80.0244,336-645-5539,phucknallbo@skype.com
422,6266 Pond Circle,Apt 1518,Saint Paul,Minnesota,55166,45.0059,-93.1059,651-655-7843,ehazeldenebp@parallels.com
423,629 Toban Place,Room 1522,Jefferson City,Missouri,65110,38.5309,-92.2493,573-751-2427,dpiatkowskibq@biglobe.ne.jp
424,43 Lukken Plaza,Apt 1149,New Haven,Connecticut,06520,41.3657,-72.9275,203-473-3412,gjessebr@angelfire.com
425,774 Vidon Way,Room 988,Charleston,South Carolina,29403,32.7976,-79.9493,843-703-7550,krubrowbs@smugmug.com
426,7 Old Shore Alley,PO Box 11801,Houston,Texas,77015,29.7853,-95.1852,713-514-0712,sgerretsenbt@omniture.com
427,0 Scott Avenue,14th Floor,Temple,Texas,76505,31.0363,-97.492,254-419-2966,cburtonshawbu@google.cn
428,4873 Melvin Drive,PO Box 9397,Topeka,Kansas,66667,39.0429,-95.7697,785-687-5225,ezutebv@blinklist.com
429,5010 Muir Avenue,Apt 1473,Scottsdale,Arizona,85260,33.6013,-111.8867,623-912-8355,isaltwellbw@stumbleupon.com
430,44 Dennis Parkway,20th Floor,Huntington,West Virginia,25721,38.4134,-82.2774,304-892-0134,ddufourbx@dmoz.org
431,356 Hintze Hill,Suite 73,Tacoma,Washington,98464,47.0662,-122.1132,253-173-7484,dlastyby@pagesperso-orange.fr
432,57 Holmberg Street,Room 1020,Charleston,South Carolina,29403,32.7976,-79.9493,843-416-0531,ssabatebz@mysql.com
433,5 Crownhardt Court,4th Floor,Roanoke,Virginia,24040,37.2742,-79.9579,540-549-5124,mgiacoppolic0@smugmug.com
434,3592 Sloan Park,Suite 82,Orange,California,92867,33.811,-117.8493,949-312-7139,wrojelc1@yellowbook.com
435,7 Eastwood Place,10th Floor,Saint Paul,Minnesota,55123,44.806,-93.1409,612-111-1562,clavellec2@reuters.com
436,7613 Service Park,Suite 23,Wichita Falls,Texas,76310,33.8581,-98.5755,940-460-2574,pdreamerc3@shareasale.com
437,2690 Truax Drive,Room 1111,New Bedford,Massachusetts,02745,41.6913,-70.9355,508-146-5311,tlundiec4@dell.com
438,665 Darwin Center,Suite 80,Saint Paul,Minnesota,55172,45.0059,-93.1059,651-230-1013,tbodenc5@mapy.cz
439,0949 Stone Corner Road,11th Floor,Carol Stream,Illinois,60351,41.9166,-88.1208,309-111-6830,fpellmanc6@icq.com
440,34462 East Pass,14th Floor,Saginaw,Michigan,48609,43.3869,-84.0926,989-114-0834,poldroydec7@mapy.cz
441,3266 Veith Road,PO Box 76750,San Diego,California,92145,32.8891,-117.1005,858-637-2585,cthyngc8@phoca.cz
442,8729 Kings Trail,Room 640,Hattiesburg,Mississippi,39404,31.1721,-89.2948,601-543-2957,jfantinc9@yahoo.co.jp
443,06 Monica Center,Room 1099,Oakland,California,94605,37.7641,-122.1633,510-990-1100,rstanislawca@xinhuanet.com
444,13 Mcguire Street,12th Floor,Nashville,Tennessee,37205,36.1114,-86.869,615-621-5040,ssalmonscb@booking.com
445,95560 Schiller Junction,7th Floor,Jacksonville,Florida,32236,30.3449,-81.6831,904-224-1646,ksteanecc@chron.com
446,6 Gulseth Plaza,PO Box 40777,Evansville,Indiana,47732,37.9971,-87.575,812-356-8508,mmarneycd@ed.gov
447,66510 Maple Center,PO Box 83619,Hartford,Connecticut,06140,41.7918,-72.7188,860-151-1709,nkenwrightce@tinypic.com
448,367 Namekagon Drive,Apt 569,Flint,Michigan,48555,43.0113,-83.7108,810-734-7717,hkerincf@dmoz.org
449,20 David Lane,PO Box 58806,Knoxville,Tennessee,37924,36.032,-83.8021,865-278-3961,atinniswoodcg@altervista.org
450,222 International Park,Suite 73,Washington,District of Columbia,20436,38.8959,-77.0211,202-172-6244,sflackch@issuu.com
451,0670 Sage Crossing,PO Box 16733,Saginaw,Michigan,48609,43.3869,-84.0926,989-223-6005,mdassindaleci@naver.com
452,3417 Holmberg Crossing,Room 1197,Sacramento,California,94237,38.3774,-121.4444,916-744-0123,rkunzelmanncj@storify.com
453,37737 Laurel Park,Suite 31,Johnson City,Tennessee,37605,36.3158,-82.3838,423-232-7460,dnorthcliffeck@shinystat.com
454,8 Kenwood Crossing,PO Box 50275,Dallas,Texas,75392,32.7673,-96.7776,214-500-8514,ccrosthwaitecl@alexa.com
455,91 Laurel Way,PO Box 65812,Lakewood,Washington,98498,47.1591,-122.5485,253-823-7520,sclaraecm@businesswire.com
456,3552 Schurz Way,PO Box 49372,Salinas,California,93907,36.7563,-121.6703,831-682-5090,tgridoncn@dyndns.org
457,1382 Weeping Birch Plaza,PO Box 22852,Mount Vernon,New York,10557,41.119,-73.733,914-403-2202,mreinersco@nymag.com
458,009 Morrow Way,Room 517,Nashville,Tennessee,37215,36.0986,-86.8219,615-156-7285,ckrebercp@umich.edu
459,5 Service Place,PO Box 69348,Dayton,Ohio,45454,39.7505,-84.2686,937-637-0581,dkrojncq@devhub.com
460,94426 Sundown Lane,13th Floor,Erie,Pennsylvania,16505,42.1109,-80.1534,814-250-1989,nmonkhousecr@discovery.com
461,01 Cody Hill,Room 1458,Paterson,New Jersey,07522,40.9252,-74.1781,973-241-6003,agutanscs@ehow.com
462,695 Mosinee Court,Apt 1214,Tulsa,Oklahoma,74126,36.2383,-95.9931,918-611-0221,tbealect@a8.net
463,4818 Summit Trail,PO Box 64481,Washington,District of Columbia,20535,38.8941,-77.0251,202-414-6082,rvautreycu@businessweek.com
464,0924 1st Circle,12th Floor,Ogden,Utah,84409,41.2553,-111.9567,801-248-9761,dfostersmithcv@mapquest.com
465,098 Ohio Court,Apt 1679,Tallahassee,Florida,32314,30.4793,-84.3462,850-289-0532,whessentalercw@wunderground.com
466,6 Thackeray Hill,Room 1254,El Paso,Texas,88514,31.6948,-106.3,915-793-8755,akidsleycx@tinypic.com
467,855 Eastwood Crossing,Apt 501,Baltimore,Maryland,21282,39.439,-76.5921,410-474-8580,kgenterycy@blogger.com
468,8731 Leroy Junction,Apt 759,Trenton,New Jersey,08638,40.251,-74.7627,609-911-7170,smccaddencz@unicef.org
469,3 Fair Oaks Alley,19th Floor,Boulder,Colorado,80305,39.9807,-105.2531,720-516-8164,tyosifovd0@networksolutions.com
470,3260 Oxford Lane,Apt 1258,Los Angeles,California,90030,33.7866,-118.2987,213-252-4383,zdannielld1@hc360.com
471,13 Memorial Road,Apt 499,Seminole,Florida,34642,27.8444,-82.7963,941-777-4085,sedghinnd2@theglobeandmail.com
472,9670 Rusk Drive,PO Box 28138,Raleigh,North Carolina,27621,35.7977,-78.6253,919-606-4893,jclemittd3@storify.com
473,40 Roth Park,Suite 58,Buffalo,New York,14205,42.7684,-78.8871,716-167-5310,khowlind4@apache.org
474,44102 Crowley Point,Suite 50,Shreveport,Louisiana,71166,32.6076,-93.7526,318-523-9776,jmaccaigd5@examiner.com
475,3980 Welch Plaza,Apt 1368,Roanoke,Virginia,24009,37.2742,-79.9579,540-924-4217,gschultd6@51.la
476,8 Russell Court,Room 1417,Lynn,Massachusetts,01905,42.4694,-70.9728,339-349-5096,adroogand7@behance.net
477,983 Nevada Place,20th Floor,Canton,Ohio,44705,40.8259,-81.3399,330-489-7134,rbrameldd8@cloudflare.com
478,40 Caliangt Place,Room 727,Oklahoma City,Oklahoma,73179,35.4242,-97.6547,405-953-5560,kcaldwelld9@intel.com
479,732 Dovetail Avenue,PO Box 22376,Wichita Falls,Texas,76305,33.9995,-98.3938,940-176-7832,borryda@technorati.com
480,023 Katie Road,Suite 30,Louisville,Kentucky,40210,38.2306,-85.7905,502-555-9715,bnewickdb@timesonline.co.uk
481,35 Maryland Avenue,2nd Floor,Orlando,Florida,32885,28.5456,-81.3782,407-886-0447,gduigandc@bravesites.com
482,47254 Green Ridge Terrace,Suite 45,Petaluma,California,94975,38.4631,-122.99,707-912-9527,rcartwrightdd@mashable.com
483,356 Hayes Street,Apt 680,Lima,Ohio,45807,40.7955,-84.1383,419-128-1059,bscogingsde@ihg.com
484,58 Lake View Court,3rd Floor,San Rafael,California,94913,38.068,-122.741,415-208-6107,mmacalasterdf@posterous.com
485,340 Hintze Point,Apt 1171,Miami,Florida,33233,25.5584,-80.4582,786-317-7603,kromeidg@rediff.com
486,39 Sullivan Place,Room 718,New York City,New York,10034,40.8662,-73.9221,212-662-5650,elinggooddh@youtube.com
487,3 Atwood Drive,Apt 1714,Rochester,Minnesota,55905,44.0225,-92.4668,507-253-1316,cdenisyevdi@mlb.com
488,53 Luster Point,PO Box 79831,Durham,North Carolina,27705,36.0218,-78.9478,434-755-5540,cblanningdj@friendfeed.com
489,518 Loftsgordon Park,Apt 1920,Las Vegas,Nevada,89120,36.0914,-115.0885,702-417-3978,lmowsdelldk@ask.com
490,867 Monument Center,Suite 28,El Paso,Texas,79994,31.6948,-106.3,915-913-5736,bbutchartdl@sina.com.cn
491,6324 Onsgard Court,13th Floor,Philadelphia,Pennsylvania,19141,40.0365,-75.1451,215-188-4784,afitzpatrickdm@sogou.com
492,89 Larry Plaza,1st Floor,Lake Worth,Florida,33467,26.6104,-80.1683,561-230-4010,mlesleydn@fda.gov
493,655 Iowa Center,Room 626,San Jose,California,95138,37.2602,-121.7709,408-805-3887,bmccaigdo@networkadvertising.org
494,6920 Anniversary Circle,Room 694,New York City,New York,10280,40.7105,-74.0163,212-962-6065,dblampeydp@dmoz.org
495,9631 Hanover Avenue,Suite 36,Wichita,Kansas,67230,37.6808,-97.1558,316-522-2532,daldhousedq@bing.com
496,50434 Cambridge Hill,Suite 23,Pittsburgh,Pennsylvania,15235,40.4598,-79.8224,724-667-2643,gkinetondr@google.com.br
497,80375 Mayfield Trail,Apt 1320,San Antonio,Texas,78210,29.3977,-98.4658,210-446-3021,acrowleyds@4shared.com
498,89 Farragut Circle,Apt 1907,Jacksonville,Florida,32204,30.3189,-81.6854,904-776-0314,ljarretdt@java.com
499,0 Fisk Plaza,Suite 79,Decatur,Georgia,30089,33.7749,-84.3046,678-373-1955,ddurnalldu@wordpress.com
500,53537 Victoria Way,6th Floor,Jersey City,New Jersey,07310,40.7324,-74.0431,973-471-6053,ecluerdv@privacy.gov.au
501,435 Shopko Terrace,19th Floor,Raleigh,North Carolina,27690,35.7977,-78.6253,919-231-9647,ibevirdw@omniture.com
502,69776 Dovetail Alley,Room 1611,Lynchburg,Virginia,24515,37.4009,-79.1785,434-945-1227,aclamptondx@cyberchimps.com
503,289 Swallow Avenue,PO Box 63375,Evansville,Indiana,47705,37.9971,-87.575,812-689-0180,bsprostondy@google.co.jp
504,20980 Merrick Plaza,16th Floor,Minneapolis,Minnesota,55436,44.9034,-93.374,612-281-1272,smacquarriedz@mayoclinic.com
505,06 East Hill,Room 634,Tacoma,Washington,98411,47.0662,-122.1132,253-253-1346,hpendreye0@state.gov
506,7340 Starling Court,Apt 563,Albany,New York,12242,42.6149,-73.9708,518-406-7734,sbaxstaire1@adobe.com
507,52 Pennsylvania Lane,PO Box 43334,Des Moines,Iowa,50981,41.6727,-93.5722,515-168-2730,overduine2@friendfeed.com
508,20 Golf Drive,10th Floor,Kansas City,Kansas,66160,39.0966,-94.7495,913-846-1633,hraimbaulde3@unblog.fr
509,56657 Huxley Point,Suite 79,Washington,District of Columbia,20370,38.8933,-77.0146,202-366-5045,wfairse4@godaddy.com
510,61 Brentwood Center,Room 273,Topeka,Kansas,66642,39.0429,-95.7697,785-359-4541,lgogaye5@biglobe.ne.jp
511,53 Cordelia Junction,PO Box 6464,Toledo,Ohio,43610,41.6767,-83.5573,419-824-8329,abagleye6@wordpress.com
512,38 David Court,Suite 9,Des Moines,Iowa,50936,41.6727,-93.5722,515-887-9490,acleifee7@barnesandnoble.com
513,43 Union Terrace,Apt 884,Washington,District of Columbia,20370,38.8933,-77.0146,202-643-8272,krangere8@psu.edu
514,0932 Hansons Park,PO Box 67820,Washington,District of Columbia,20508,38.8933,-77.0146,202-580-0064,nasaafe9@pinterest.com
515,307 Kennedy Street,Room 1030,Jamaica,New York,11480,40.6914,-73.8061,718-556-5279,rhubberea@phoca.cz
516,035 Burning Wood Circle,Suite 31,Saginaw,Michigan,48604,43.4732,-83.9514,989-934-4938,ecanepeeb@wp.com
517,61 Kensington Trail,Apt 26,Englewood,Colorado,80150,39.7388,-104.4083,303-543-7333,pjeffcoatec@purevolume.com
518,8 Armistice Court,11th Floor,Milwaukee,Wisconsin,53225,43.1154,-88.0346,414-257-3216,tmalletted@loc.gov
519,6 Texas Court,Room 1252,Saint Paul,Minnesota,55172,45.0059,-93.1059,651-826-5204,rdunkersleyee@a8.net
520,0508 Dahle Circle,PO Box 57476,Sioux Falls,South Dakota,57105,43.524,-96.7341,605-237-0036,mtuttonef@oaic.gov.au
521,2447 Elgar Drive,Suite 92,Hialeah,Florida,33018,25.9098,-80.3889,786-156-5164,rwardingleyeg@howstuffworks.com
522,4 Green Ridge Point,Suite 15,Richmond,Virginia,23289,37.5313,-77.4161,804-349-3505,jjodlowskieh@blogspot.com
523,63880 3rd Junction,Suite 5,Charlotte,North Carolina,28235,35.26,-80.8042,704-113-2971,rwinchcumei@google.com
524,68510 Kings Avenue,Apt 1754,Colorado Springs,Colorado,80945,38.8247,-104.562,719-903-0346,psallyej@sohu.com
525,36 Algoma Center,Suite 5,Lakeland,Florida,33805,28.072,-81.9609,863-999-3128,jstockingsek@godaddy.com
526,65 Farragut Junction,Apt 1611,Tempe,Arizona,85284,33.3363,-111.9197,602-286-2041,sbrentnallel@cdbaby.com
527,320 Thackeray Avenue,Apt 1508,Chicago,Illinois,60609,41.8097,-87.6533,312-645-5476,jcarilloem@nyu.edu
528,42929 Katie Way,11th Floor,Chattanooga,Tennessee,37450,35.2211,-85.2091,423-923-2992,jravelusen@hubpages.com
529,84557 Crescent Oaks Street,Suite 9,Austin,Texas,78703,30.2907,-97.7648,512-115-0264,hbutcharteo@sina.com.cn
530,48 Manitowish Crossing,PO Box 32754,Greenville,South Carolina,29610,34.8497,-82.4538,864-259-0090,dwhitehouseep@ted.com
531,1242 Red Cloud Pass,PO Box 9820,Pittsburgh,Pennsylvania,15220,40.4181,-80.0526,412-950-2221,shamfletteq@hexun.com
532,22 Dunning Road,Apt 829,Washington,District of Columbia,20397,38.9164,-76.9948,202-570-1071,rarenser@goo.ne.jp
533,40638 Moland Point,7th Floor,Fort Lauderdale,Florida,33315,26.0989,-80.1541,954-748-7130,jcaldeyrouxes@vk.com
534,8 Hanover Way,Suite 63,Pasadena,California,91199,34.1478,-118.1436,626-856-4958,krossonet@php.net
535,14384 Mariners Cove Plaza,Suite 88,Greensboro,North Carolina,27404,36.0807,-80.0244,336-698-2766,bpaulssoneu@geocities.jp
536,37 Petterle Way,Room 1248,Santa Ana,California,92725,33.7465,-117.8662,714-599-4013,pkimmingsev@sciencedaily.com
537,80 Montana Lane,Room 1570,Muncie,Indiana,47306,40.2023,-85.4082,765-649-6721,isiderfinew@cpanel.net
538,56 Eastlawn Point,Apt 1120,Decatur,Georgia,30033,33.8123,-84.2819,404-468-6314,pwillicottex@reverbnation.com
539,83605 Pennsylvania Way,Suite 80,Des Moines,Iowa,50936,41.6727,-93.5722,515-196-6990,rsealeafey@engadget.com
540,849 Mallory Lane,Room 1950,Washington,District of Columbia,20404,38.8992,-77.0089,202-940-2378,kmckinnonez@soup.io
541,01 Cherokee Hill,PO Box 66778,Oklahoma City,Oklahoma,73124,35.5514,-97.4075,405-302-6391,tmangionf0@kickstarter.com
542,40 Reinke Place,6th Floor,Spokane,Washington,99220,47.6536,-117.4317,509-582-7561,eemorf1@edublogs.org
543,09534 Milwaukee Parkway,Apt 1963,Fresno,California,93709,36.7464,-119.6397,559-769-0017,jgrabbf2@mozilla.com
544,5 Fairfield Plaza,Room 1596,Reno,Nevada,89550,39.5387,-119.8225,775-877-2740,lpennycookf3@gizmodo.com
545,36044 Loomis Lane,PO Box 54195,Eugene,Oregon,97405,44.0185,-123.0998,541-924-6195,wdalliwaterf4@360.cn
546,6 Memorial Street,PO Box 72806,Lake Charles,Louisiana,70607,30.1244,-93.1835,337-981-8100,randreyf5@sohu.com
547,63 Maryland Court,PO Box 4576,Anchorage,Alaska,99599,61.1872,-149.8804,907-777-6122,fmilaf6@wufoo.com
548,73 Montana Road,Suite 86,Van Nuys,California,91406,34.2006,-118.4868,818-498-7139,lmcnallyf7@creativecommons.org
549,1616 Cottonwood Center,PO Box 99191,Montgomery,Alabama,36119,32.2334,-86.2085,334-914-9636,gketleyf8@salon.com
550,71 Holmberg Drive,PO Box 8599,Charlotte,North Carolina,28278,35.2072,-80.9568,704-840-2192,aburttf9@stumbleupon.com
551,959 Oak Valley Trail,PO Box 59674,Richmond,Virginia,23228,37.625,-77.4959,804-239-2545,liacomofa@pinterest.com
552,8 Iowa Lane,PO Box 65961,Roanoke,Virginia,24024,37.2742,-79.9579,540-801-0052,hmatveichevfb@wufoo.com
553,64 Green Junction,PO Box 87024,Philadelphia,Pennsylvania,19125,39.9788,-75.1262,215-630-4611,bnaisbetfc@google.com.hk
554,4368 Village Point,Apt 1025,Baltimore,Maryland,21265,39.2847,-76.6205,410-380-4211,eplattsfd@cocolog-nifty.com
555,7742 Forest Point,Suite 86,Shreveport,Louisiana,71130,32.6076,-93.7526,318-355-2790,sreicharzfe@springer.com
556,45 Comanche Way,Suite 71,Spokane,Washington,99210,47.6536,-117.4317,509-329-8386,edenyaginff@huffingtonpost.com
557,73 Cody Circle,PO Box 41333,West Palm Beach,Florida,33416,26.6654,-80.0929,561-471-4798,mbeinischfg@friendfeed.com
558,39881 Dakota Alley,Suite 58,Jamaica,New York,11470,40.6914,-73.8061,917-549-9171,jrowbreyfh@jugem.jp
559,3 4th Drive,9th Floor,Midland,Michigan,48670,43.6375,-84.2568,989-256-9658,sfarmanfi@moonfruit.com
560,23 Dennis Road,4th Floor,Orlando,Florida,32803,28.5559,-81.3535,407-976-5784,gsollnerfj@webmd.com
561,4 Fairfield Way,Apt 1137,Cleveland,Ohio,44177,41.6857,-81.6728,216-249-8735,tharkerfk@chicagotribune.com
562,4598 Mendota Parkway,Room 1097,Washington,District of Columbia,20337,38.8933,-77.0146,202-266-9472,cclaughtonfl@netlog.com
563,82 Bay Road,Room 324,Austin,Texas,78703,30.2907,-97.7648,512-527-7412,krenackownafm@gnu.org
564,871 Farmco Crossing,PO Box 92731,Houston,Texas,77085,29.6218,-95.4819,281-215-9213,fharroldfn@pen.io
565,6 Clemons Drive,Apt 351,Memphis,Tennessee,38143,35.2017,-89.9715,901-661-0795,mwatsonfo@mac.com
566,13480 Shasta Park,PO Box 7767,Louisville,Kentucky,40298,38.189,-85.6768,502-585-7164,aastallfp@go.com
567,6950 Calypso Street,PO Box 49191,Henderson,Nevada,89012,36.0119,-115.0433,702-272-3493,sjarretfq@yahoo.co.jp
568,93 Union Parkway,Suite 55,Stockton,California,95219,38.01,-121.3698,209-229-8718,ftrunbyfr@ehow.com
569,1 Blue Bill Park Lane,Room 210,Stockton,California,95219,38.01,-121.3698,209-280-2481,lclohiseyfs@sakura.ne.jp
570,02 Bluejay Hill,Apt 1216,Santa Monica,California,90410,33.7866,-118.2987,310-749-1620,sdelhayft@jalbum.net
571,2075 Moulton Center,12th Floor,Houston,Texas,77040,29.8744,-95.5278,713-544-4926,greeffu@skype.com
572,9742 Continental Alley,Room 793,Huntington,West Virginia,25716,38.4134,-82.2774,304-632-0168,rbassetfv@yolasite.com
573,6717 Summit Center,Suite 17,Washington,District of Columbia,20215,38.8933,-77.0146,202-396-0563,sstoneleyfw@businessweek.com
574,62 Sunbrook Pass,PO Box 6687,Paterson,New Jersey,07544,41.0114,-74.3048,862-108-4257,deastwayfx@apache.org
575,2394 Di Loreto Plaza,Room 1263,Alhambra,California,91841,33.7866,-118.2987,626-216-8355,mdinceyfy@linkedin.com
576,66629 Luster Pass,PO Box 18169,Maple Plain,Minnesota,55572,45.0159,-93.4719,763-427-2676,cboswoodfz@economist.com
577,2419 Golf View Place,Room 1658,Fargo,North Dakota,58106,46.9346,-97.2297,701-124-6620,mducketg0@deviantart.com
578,329 Anhalt Road,Room 1378,Oceanside,California,92056,33.1968,-117.2831,858-531-8438,erangerg1@bloglovin.com
579,29 Nevada Avenue,PO Box 90096,Atlanta,Georgia,30386,33.8444,-84.474,404-864-5996,zmeldong2@businessweek.com
580,4 Amoth Alley,Suite 98,Fort Wayne,Indiana,46852,41.0938,-85.0707,260-969-2948,sbuggg3@shinystat.com
581,2 Buena Vista Center,Room 1533,Charleston,West Virginia,25331,38.2968,-81.5547,304-295-6881,tpolendineg4@senate.gov
582,41 Dayton Crossing,2nd Floor,El Paso,Texas,88530,31.6948,-106.3,915-649-5775,fpybworthg5@mashable.com
583,8318 Ryan Crossing,10th Floor,Irvine,California,92710,33.7074,-117.8403,714-678-9961,ghambridgeg6@omniture.com
584,8773 Badeau Drive,PO Box 58844,Topeka,Kansas,66642,39.0429,-95.7697,785-764-4439,mkleingrubg7@photobucket.com
585,33 Old Gate Place,Suite 48,Fort Worth,Texas,76178,32.7714,-97.2915,682-366-3758,snancekivellg8@friendfeed.com
586,35775 Comanche Drive,14th Floor,North Little Rock,Arkansas,72199,34.8272,-92.2847,501-580-7929,blammimang9@ow.ly
587,73612 Bellgrove Terrace,Apt 1691,Washington,District of Columbia,20525,38.8933,-77.0146,202-203-5244,ebushillga@discuz.net
588,1 Oneill Pass,PO Box 8178,Utica,New York,13505,43.0872,-75.2603,315-195-6740,vshakeladegb@digg.com
589,01712 Monica Terrace,1st Floor,Portland,Oregon,97286,45.5806,-122.3748,503-845-4496,afisbburnegc@mayoclinic.com
590,930 Waubesa Avenue,Apt 373,Fort Worth,Texas,76129,32.7714,-97.2915,817-232-1677,smconiegd@webmd.com
591,78509 High Crossing Park,PO Box 37576,Milwaukee,Wisconsin,53205,43.0528,-87.9353,414-953-8919,mdabournege@joomla.org
592,9511 Mcguire Hill,PO Box 75220,Newton,Massachusetts,02458,42.3528,-71.1875,857-102-5196,twinsborrowgf@si.edu
593,95 Maywood Way,7th Floor,Springfield,Massachusetts,01152,42.1707,-72.6048,413-559-8087,atwistgg@smh.com.au
594,4888 Kim Hill,Room 1733,Roanoke,Virginia,24024,37.2742,-79.9579,540-997-9721,kwattinggh@senate.gov
595,1044 Amoth Road,Suite 1,Wilmington,Delaware,19805,39.7434,-75.5827,302-990-6947,gbirdwistlegi@jigsy.com
596,3 Dorton Circle,20th Floor,Mesa,Arizona,85205,33.4368,-111.7129,602-524-6800,gtrehearnegj@photobucket.com
597,32 Burning Wood Avenue,5th Floor,Norman,Oklahoma,73071,35.233,-97.4067,405-682-3391,jchasiergk@japanpost.jp
598,857 Loftsgordon Parkway,Suite 89,Maple Plain,Minnesota,55579,45.0159,-93.4719,952-726-7509,kstookgl@ibm.com
599,850 Reindahl Place,Suite 33,Greensboro,North Carolina,27499,36.0807,-80.0244,336-738-4513,sbrosinigm@hubpages.com
600,0 Emmet Park,Suite 84,Omaha,Nebraska,68179,41.2917,-96.1711,402-292-5549,awoottongn@ucsd.edu
601,5 Old Shore Junction,9th Floor,Omaha,Nebraska,68117,41.2064,-95.9953,402-898-8707,acartango@omniture.com
602,73647 Eastlawn Court,14th Floor,Syracuse,New York,13224,43.0421,-76.1046,315-351-0971,vdohrgp@marriott.com
603,4 Michigan Parkway,PO Box 51231,Philadelphia,Pennsylvania,19172,39.9473,-75.15,215-251-1589,tstallworthgq@exblog.jp
604,6 Pennsylvania Point,PO Box 31803,Alexandria,Virginia,22309,38.7192,-77.1073,703-191-0656,pgarnhamgr@usgs.gov
605,34 Mayer Crossing,Suite 46,Houston,Texas,77234,29.834,-95.4342,713-682-9835,pblossgs@biblegateway.com
606,5 East Trail,Apt 1888,Fort Myers,Florida,33913,26.5228,-81.7065,239-590-4197,dholligangt@hc360.com
607,677 Grim Drive,Suite 54,Waco,Texas,76711,31.5175,-97.1547,254-361-5265,ocloneygu@weibo.com
608,362 Marcy Point,11th Floor,Clearwater,Florida,34620,27.9139,-82.7157,727-320-5762,churndallgv@ebay.com
609,197 Marquette Junction,7th Floor,Boston,Massachusetts,02216,42.3389,-70.9196,617-976-9564,gswynfengw@devhub.com
610,6221 Waxwing Point,7th Floor,Prescott,Arizona,86305,34.8185,-112.9584,520-890-5151,sortongx@imdb.com
611,37 Badeau Way,PO Box 38759,San Jose,California,95155,37.31,-121.9011,408-704-3518,nsuffieldgy@toplist.cz
612,917 Larry Lane,Room 53,Atlanta,Georgia,30340,33.8932,-84.2539,404-310-0701,lmcveegz@ft.com
613,2061 Sloan Park,Suite 67,Milwaukee,Wisconsin,53263,43.0746,-88.0604,414-488-8627,kquartlyh0@wikimedia.org
614,6402 Upham Park,Room 1580,New York City,New York,10203,40.7808,-73.9772,212-563-6721,azouchh1@skyrock.com
615,53770 Erie Circle,4th Floor,Waterbury,Connecticut,06721,41.3657,-72.9275,203-857-1171,omontagueh2@unesco.org
616,3164 Golf View Park,PO Box 50690,Kansas City,Kansas,66112,39.116,-94.764,816-886-3902,jsparwayh3@gravatar.com
617,99119 Oak Lane,Room 327,San Antonio,Texas,78235,29.3494,-98.4422,210-702-5852,aogriffinh4@behance.net
618,68 Dakota Trail,Room 599,Houston,Texas,77085,29.6218,-95.4819,713-208-5034,bsherwinh5@nsw.gov.au
619,0 Moulton Place,Room 1399,Santa Monica,California,90410,33.7866,-118.2987,310-469-3365,kdarcoh6@sitemeter.com
620,15 Dovetail Lane,Room 1845,Wilkes Barre,Pennsylvania,18763,41.2722,-75.8801,570-599-1474,irenonh7@so-net.ne.jp
621,04961 Fieldstone Terrace,6th Floor,Seattle,Washington,98185,47.4323,-121.8034,206-938-3323,opersichh8@twitter.com
622,21 Sachtjen Junction,Room 1968,Dallas,Texas,75260,32.7673,-96.7776,214-187-0744,mlicciardih9@histats.com
623,8 Clyde Gallagher Crossing,2nd Floor,El Paso,Texas,88558,31.6948,-106.3,915-220-2121,csicilyha@smh.com.au
624,752 Holy Cross Parkway,PO Box 97669,Philadelphia,Pennsylvania,19160,40.0018,-75.1179,215-745-5969,kogleasanehb@si.edu
625,7984 Elka Junction,Suite 94,Washington,District of Columbia,20205,38.905,-77.0162,202-983-8882,trosenauhc@artisteer.com
626,645 Bowman Street,Room 324,New York City,New York,10029,40.7918,-73.9448,646-396-5889,aivankinhd@indiatimes.com
627,14 Butternut Street,Apt 299,Corona,California,92883,33.7541,-117.474,626-593-7817,nchiddyhe@shinystat.com
628,38496 Lien Center,PO Box 57423,Kansas City,Kansas,66160,39.0966,-94.7495,913-875-1499,jjorathf@wikia.com
629,98 Golf View Center,Room 97,Baton Rouge,Louisiana,70883,30.5159,-91.0804,225-567-0435,nshimminhg@tiny.cc
630,48143 Elka Crossing,PO Box 69380,Jamaica,New York,11431,40.6869,-73.8501,212-577-9644,amapstonhh@bloglovin.com
631,218 Westend Place,PO Box 9562,Orlando,Florida,32830,28.3822,-81.569,407-707-8503,jgobelhi@upenn.edu
632,54099 Almo Circle,Suite 10,Tulsa,Oklahoma,74108,36.1499,-95.7923,918-535-9357,cbraybrookshj@google.ca
633,6 Mayer Hill,Apt 1766,Cape Coral,Florida,33915,26.6599,-81.8934,239-127-1303,dpinnionhk@360.cn
634,91356 Merchant Park,Room 1779,Los Angeles,California,90030,33.7866,-118.2987,213-135-9827,dyarrantonhl@examiner.com
635,1250 Merrick Park,PO Box 48870,Indianapolis,Indiana,46239,39.7265,-86.0005,317-520-8621,gallinsonhm@t-online.de
636,4094 Ludington Road,Apt 132,Fort Lauderdale,Florida,33305,26.1497,-80.1229,954-229-3074,bmcilmoriehn@privacy.gov.au
637,501 Kipling Crossing,Room 883,Palmdale,California,93591,34.6019,-117.8123,661-440-6911,lblackleyho@flickr.com
638,67981 Farmco Junction,Apt 1120,Saint Louis,Missouri,63116,38.5814,-90.2625,314-469-1093,tmarrinerhp@discovery.com
639,0 Lawn Place,2nd Floor,Atlanta,Georgia,30343,33.8444,-84.474,404-185-4187,kproudlerhq@com.com
640,374 Village Green Court,PO Box 98054,Los Angeles,California,90189,34.0515,-118.2559,213-342-2316,mgladdifhhr@ocn.ne.jp
641,5 Susan Terrace,Room 1748,Florence,South Carolina,29505,34.1231,-79.6893,843-296-0264,fdelythhs@princeton.edu
642,50 South Parkway,PO Box 35914,Charlotte,North Carolina,28210,35.1316,-80.8577,704-847-9981,btebbuttht@tiny.cc
643,82 Del Mar Circle,PO Box 41095,New York City,New York,10125,40.7808,-73.9772,212-312-3071,cburnelhu@gmpg.org
644,45068 Elgar Hill,Room 1128,Washington,District of Columbia,20041,38.8933,-77.0146,703-300-7381,nfitzackerleyhv@tamu.edu
645,1 Golf Drive,Room 595,Dallas,Texas,75236,32.69,-96.9177,972-436-6231,miorizzohw@shareasale.com
646,3 Morning Center,13th Floor,New Hyde Park,New York,11044,40.7548,-73.6018,516-114-2448,jbarstockhx@un.org
647,0854 Doe Crossing Crossing,9th Floor,Port Charlotte,Florida,33954,27.0228,-82.1108,941-585-6746,wragghy@ask.com
648,90 Forest Run Drive,Room 1998,Montgomery,Alabama,36134,32.2334,-86.2085,334-154-4638,hvaissierehz@guardian.co.uk
649,45 Grasskamp Lane,Suite 71,Washington,District of Columbia,20057,38.8933,-77.0146,202-537-6169,rschonfelderi0@nasa.gov
650,99 Banding Point,Apt 1578,Palo Alto,California,94302,37.1894,-121.7053,650-182-6929,istationi1@edublogs.org
651,1 Lakewood Gardens Hill,Suite 28,Biloxi,Mississippi,39534,30.4067,-88.9211,228-542-7737,pcastoni2@harvard.edu
652,85 Hazelcrest Alley,Apt 1902,Albuquerque,New Mexico,87121,35.0512,-106.7269,505-479-4388,gsudyi3@samsung.com
653,48 Lotheville Crossing,Apt 951,Honolulu,Hawaii,96850,21.3095,-157.863,808-468-4375,larnholdi4@printfriendly.com
654,3608 Hooker Crossing,Apt 1921,Miami,Florida,33169,25.9441,-80.2144,954-498-4188,aizchakii5@privacy.gov.au
655,332 Spaight Park,PO Box 62680,Fort Worth,Texas,76129,32.7714,-97.2915,817-107-5910,uharteleyi6@bbb.org
656,6880 Mayfield Point,Suite 34,Detroit,Michigan,48242,42.2166,-83.3532,734-621-1315,lfairburni7@ebay.co.uk
657,5 Towne Lane,Room 1053,Monroe,Louisiana,71213,32.4908,-92.1594,318-565-3926,ufilipovi8@wordpress.com
658,2 Paget Pass,Room 411,Scottsdale,Arizona,85271,33.2765,-112.1872,480-924-4570,hkitsi9@gnu.org
659,20 Cottonwood Court,Suite 70,Springfield,Illinois,62764,39.7495,-89.606,217-290-4165,sbroxholmeia@list-manage.com
660,14377 Merry Drive,Suite 82,New York City,New York,10280,40.7105,-74.0163,212-308-2267,wdeathib@cam.ac.uk
661,96 Lillian Pass,Suite 34,Cincinnati,Ohio,45296,39.1668,-84.5382,513-429-6831,kcharonic@alibaba.com
662,9 Sauthoff Center,11th Floor,Birmingham,Alabama,35215,33.6493,-86.7057,205-856-7494,hsavileid@nsw.gov.au
663,11 Straubel Way,Room 1133,Manassas,Virginia,22111,38.7202,-77.4391,434-578-3749,tjacobie@ca.gov
664,4 Troy Junction,Apt 193,Chicago,Illinois,60619,41.7458,-87.6054,312-844-0781,bavisif@omniture.com
665,64670 Sauthoff Alley,Suite 54,Knoxville,Tennessee,37931,35.9924,-84.1201,865-551-5698,mmarcussenig@narod.ru
666,49 Sunbrook Road,Suite 42,Schenectady,New York,12325,42.8333,-74.058,518-106-4231,clackyih@com.com
667,106 Lillian Road,Room 20,Beaumont,Texas,77705,30.0211,-94.1157,409-344-4972,bwhyardii@pcworld.com
668,9 Brown Road,PO Box 18164,Gulfport,Mississippi,39505,30.4158,-89.0684,228-763-7288,jcockingsij@discuz.net
669,21 Oak Pass,Room 800,Miami,Florida,33164,25.5584,-80.4582,786-217-6577,jbellefonteik@sun.com
670,3 American Street,Suite 54,Oklahoma City,Oklahoma,73109,35.4259,-97.5261,405-235-9728,dpauwelil@ucoz.com
671,47589 Michigan Court,Suite 40,Oklahoma City,Oklahoma,73152,35.5514,-97.4075,405-767-8191,gschneiderim@dropbox.com
672,7165 Harper Crossing,9th Floor,San Francisco,California,94126,37.7848,-122.7278,415-801-5880,mledekerin@hatena.ne.jp
673,9951 Spohn Point,Suite 75,Washington,District of Columbia,20057,38.8933,-77.0146,202-170-2189,ebulliventio@whitehouse.gov
674,82893 Anhalt Parkway,Apt 1080,Bronx,New York,10464,40.8469,-73.7874,718-700-7650,alashfordip@nature.com
675,24 Anniversary Trail,Room 395,Saint Petersburg,Florida,33710,27.7898,-82.7243,727-108-1606,iabelsiq@mac.com
676,2 Elka Way,Room 417,Boise,Idaho,83757,43.4599,-116.244,208-673-2616,pspraberryir@wikispaces.com
677,9 Shelley Terrace,PO Box 23466,Pompano Beach,Florida,33069,26.2288,-80.1635,954-545-8253,nskokoeis@theatlantic.com
678,4 Gateway Circle,12th Floor,Fort Wayne,Indiana,46896,41.0938,-85.0707,260-338-1782,rwoolhouseit@reddit.com
679,85 Springs Terrace,14th Floor,Memphis,Tennessee,38168,35.2017,-89.9715,901-108-6226,shamfleetiu@reddit.com
680,55164 Clarendon Terrace,Apt 923,Sacramento,California,94207,38.3774,-121.4444,916-539-6689,dparnabyiv@360.cn
681,46868 Delaware Crossing,Suite 5,Madison,Wisconsin,53710,43.0696,-89.4239,608-393-4377,tpayniw@arizona.edu
682,70 Jana Plaza,Suite 29,Boston,Massachusetts,02203,42.3615,-71.0604,617-383-5095,tcramphornix@blogger.com
683,32834 Burrows Pass,Apt 136,Birmingham,Alabama,35290,33.5446,-86.9292,205-980-9029,yfaichiy@samsung.com
684,13175 Westport Avenue,PO Box 94768,Annapolis,Maryland,21405,39.0305,-76.5515,410-476-9219,bblackledgeiz@ask.com
685,472 Iowa Terrace,12th Floor,Mobile,Alabama,36641,30.6589,-88.178,251-573-7756,obroschj0@behance.net
686,860 Fair Oaks Lane,PO Box 16001,Irvine,California,92710,33.7074,-117.8403,714-723-8611,soxenfordj1@posterous.com
687,39 Welch Terrace,Room 204,Trenton,New Jersey,08608,40.2204,-74.7622,609-821-2261,ldudderidgej2@amazon.de
688,734 Vidon Junction,Suite 95,El Paso,Texas,79934,31.9386,-106.4073,915-208-8628,cstaytj3@51.la
689,5772 Bay Crossing,Apt 821,Albany,New York,12227,42.6149,-73.9708,518-339-1592,creynej4@squidoo.com
690,70 Farragut Park,Room 1627,Denver,Colorado,80279,39.7388,-104.4083,303-503-7847,nmcgillivriej5@princeton.edu
691,49 Golden Leaf Alley,Apt 1432,Kansas City,Missouri,64193,39.035,-94.3567,816-339-2629,tbredburyj6@berkeley.edu
692,0238 Shasta Crossing,3rd Floor,Jacksonville,Florida,32230,30.3449,-81.6831,904-543-2164,bmccoyj7@chron.com
693,46 Fordem Plaza,Room 1159,Dayton,Ohio,45454,39.7505,-84.2686,937-619-5827,rsaraj8@bizjournals.com
694,1 Chinook Plaza,Apt 937,Elizabeth,New Jersey,07208,40.6747,-74.2239,908-490-0782,pandreuccij9@google.nl
695,17 Anhalt Pass,Suite 26,Greensboro,North Carolina,27415,36.0807,-80.0244,336-632-8951,tperrellija@fotki.com
696,0 Reinke Park,Apt 874,New York City,New York,10009,40.7262,-73.9796,212-760-0147,tfitzpaynjb@squidoo.com
697,6 Thierer Center,PO Box 24433,Washington,District of Columbia,20057,38.8933,-77.0146,202-786-3953,vtallonjc@irs.gov
698,0 Bunker Hill Circle,Room 898,Fort Worth,Texas,76121,32.7714,-97.2915,817-644-2945,adavidsjd@usgs.gov
699,5 Thompson Avenue,Apt 1364,Washington,District of Columbia,20370,38.8933,-77.0146,202-747-5204,jshotterje@ning.com
700,0 Buhler Park,PO Box 8020,Louisville,Kentucky,40250,38.189,-85.6768,502-846-6195,ddennistonjf@comsenz.com
701,19722 Jay Crossing,Suite 18,Palatine,Illinois,60078,41.8119,-87.6873,847-287-3345,yflattjg@google.ru
702,45294 6th Circle,Suite 62,Huntington,West Virginia,25770,38.4134,-82.2774,304-550-2729,fribajh@scribd.com
703,7 Hanson Terrace,PO Box 56274,Santa Barbara,California,93106,34.4329,-119.8371,805-466-3345,rmckeadyji@cargocollective.com
704,601 Trailsway Plaza,PO Box 60907,Harrisburg,Pennsylvania,17126,40.2618,-76.88,717-686-9211,rkitcattjj@sogou.com
705,93994 Oxford Way,Suite 56,Los Angeles,California,90025,34.0447,-118.4487,424-975-8583,alambertinijk@shinystat.com
706,6075 Browning Crossing,Suite 7,Rockville,Maryland,20851,39.0763,-77.1234,240-849-7513,adauberjl@angelfire.com
707,1 Dayton Road,PO Box 57260,Saint Louis,Missouri,63196,38.6531,-90.2435,314-301-2546,tirvinjm@taobao.com
708,1186 Walton Drive,Apt 1187,Pasadena,California,91117,33.7866,-118.2987,626-273-5771,bgoffordjn@purevolume.com
709,7386 Prairieview Avenue,Apt 832,Cedar Rapids,Iowa,52405,41.9804,-91.7098,319-526-8334,cmargetsonjo@cyberchimps.com
710,8922 Jenna Parkway,Apt 1229,Waco,Texas,76705,31.6403,-97.0963,254-455-6078,cjosipovitzjp@mayoclinic.com
711,2958 Oriole Park,Suite 10,Jackson,Mississippi,39236,32.3113,-90.3972,601-495-4047,hgentzschjq@adobe.com
712,554 Monterey Alley,Suite 63,Pensacola,Florida,32520,30.4124,-87.2035,850-231-3631,mbellinghamjr@disqus.com
713,944 Dapin Lane,Suite 16,El Paso,Texas,88535,31.6948,-106.3,915-751-6443,tlawlanjs@aboutads.info
714,19 Stuart Street,Suite 41,Milwaukee,Wisconsin,53225,43.1154,-88.0346,414-120-8905,bbinionjt@last.fm
715,1 Fordem Drive,Suite 20,Fresno,California,93715,36.7464,-119.6397,559-606-6614,alunneyju@princeton.edu
716,8 Hallows Road,3rd Floor,San Francisco,California,94126,37.7848,-122.7278,415-668-2025,dflockhartjv@ustream.tv
717,539 Bayside Pass,Suite 67,Virginia Beach,Virginia,23464,36.7978,-76.1759,757-517-3771,mallenjw@ox.ac.uk
718,56 Packers Road,Apt 1612,Toledo,Ohio,43656,41.6782,-83.4972,419-702-3107,hgiacomojx@oaic.gov.au
719,930 Oakridge Terrace,PO Box 80705,Houston,Texas,77050,29.9015,-95.2848,281-234-3517,froycejy@weibo.com
720,99 Mccormick Drive,Suite 24,Knoxville,Tennessee,37914,35.9918,-83.8496,865-125-3972,mahernjz@ebay.com
721,18 Hudson Court,Apt 721,Spokane,Washington,99252,47.6536,-117.4317,509-591-9333,atomblesonk0@netvibes.com
722,4432 Nancy Place,PO Box 55961,Wilmington,Delaware,19886,39.5645,-75.597,302-839-6686,arehork1@ed.gov
723,5506 Kropf Point,7th Floor,Vero Beach,Florida,32964,27.709,-80.5726,772-124-5365,cwindersk2@cmu.edu
724,0855 Steensland Street,Apt 1836,Honolulu,Hawaii,96820,21.351,-157.8795,808-541-3493,hgrievsonk3@bizjournals.com
725,5 Ronald Regan Lane,Suite 60,Madison,Wisconsin,53716,43.0631,-89.3133,608-591-9272,dhindesk4@sourceforge.net
726,4758 Tennyson Hill,Suite 9,Richmond,Virginia,23260,37.5242,-77.4932,804-792-9049,anoark5@opensource.org
727,3 Victoria Way,Suite 7,Phoenix,Arizona,85005,33.2765,-112.1872,602-458-3840,kvanichkovk6@gov.uk
728,18983 Sutteridge Way,PO Box 73499,Los Angeles,California,90071,34.0529,-118.2549,818-453-6546,hbroyk7@ftc.gov
729,2605 Fuller Place,10th Floor,Seattle,Washington,98158,47.4497,-122.3076,206-498-9114,cbolderok8@wiley.com
730,5 Fuller Junction,7th Floor,Mesa,Arizona,85215,33.4707,-111.7188,480-624-6428,rdeerek9@deliciousdays.com
731,9 Annamark Street,Apt 1288,Washington,District of Columbia,20566,38.8971,-77.0554,202-554-0631,wkoppka@hao123.com
732,736 Linden Hill,16th Floor,Columbus,Ohio,43210,40.0028,-83.0164,614-638-6123,celiassonkb@discovery.com
733,74310 Mayer Center,Room 987,Minneapolis,Minnesota,55480,45.0159,-93.4719,612-889-3083,teilhartkc@princeton.edu
734,036 Coleman Parkway,Apt 298,Oklahoma City,Oklahoma,73147,35.5514,-97.4075,405-992-8027,amelliardkd@symantec.com
735,01976 Hoard Avenue,Apt 1972,Springfield,Massachusetts,01105,42.0999,-72.5783,413-364-7442,mlairdke@cam.ac.uk
736,6290 Lawn Drive,PO Box 73176,Albuquerque,New Mexico,87105,35.0448,-106.6893,505-679-9104,mbradbeerkf@people.com.cn
737,49 Meadow Ridge Lane,Apt 667,Louisville,Kentucky,40233,38.189,-85.6768,502-816-1808,kharpurkg@stanford.edu
738,040 Larry Road,Room 877,Tucson,Arizona,85710,32.2138,-110.824,520-648-1696,rraitkh@friendfeed.com
739,56 High Crossing Street,Suite 8,Edmond,Oklahoma,73034,35.6665,-97.4798,405-723-5041,lsodeauki@google.com.hk
740,1661 Rowland Avenue,Room 1101,Monroe,Louisiana,71208,32.4968,-92.0756,318-131-6865,thuggettkj@joomla.org
741,50784 Eastwood Road,16th Floor,Ocala,Florida,34474,29.1565,-82.2095,352-203-2612,awiltshawkk@behance.net
742,94057 Crescent Oaks Park,Room 416,Anchorage,Alaska,99512,61.204,-149.8084,907-366-7376,oovendenkl@sphinn.com
743,0363 Lake View Parkway,Suite 81,Salt Lake City,Utah,84145,40.6681,-111.9083,801-121-8562,cmcculloghkm@creativecommons.org
744,59 Goodland Avenue,Room 1023,Pompano Beach,Florida,33064,26.2785,-80.1157,561-335-8003,ldawtrekn@admin.ch
745,187 Old Shore Junction,PO Box 78665,Boise,Idaho,83722,43.4599,-116.244,208-820-4086,kfaraharko@seesaa.net
746,8 Kinsman Way,Apt 638,Cincinnati,Ohio,45213,39.1802,-84.4204,513-531-7231,gdurantekp@miibeian.gov.cn
747,67 Dahle Center,Apt 1197,Erie,Pennsylvania,16505,42.1109,-80.1534,814-392-9361,wtugwellkq@mtv.com
748,98 Del Mar Hill,11th Floor,Charlotte,North Carolina,28256,35.26,-80.8042,704-451-7364,adunniomkr@washington.edu
749,7 Cottonwood Road,Apt 1376,Van Nuys,California,91406,34.2006,-118.4868,310-407-1652,sletsonks@amazon.com
750,1 Vidon Avenue,Apt 321,Washington,District of Columbia,20557,38.8874,-77.0047,202-914-3064,rciciarikt@ed.gov
751,115 Sheridan Way,Apt 135,Annapolis,Maryland,21405,39.0305,-76.5515,410-964-4066,akarmelku@gizmodo.com
752,801 Melrose Way,19th Floor,Boca Raton,Florida,33432,26.3462,-80.0844,954-510-3703,kvanzonkv@edublogs.org
753,50938 Fordem Drive,Room 1565,Chicago,Illinois,60609,41.8097,-87.6533,312-222-4906,lkoskw@gov.uk
754,3808 John Wall Parkway,Room 402,Saint Louis,Missouri,63136,38.7196,-90.27,314-234-3688,crizzardikx@sbwire.com
755,5 Hollow Ridge Park,PO Box 16284,Salt Lake City,Utah,84170,40.6681,-111.9083,801-500-0990,vlabesky@wikispaces.com
756,0 David Court,Room 463,Des Moines,Iowa,50347,41.6727,-93.5722,515-979-1931,mdenricokz@china.com.cn
757,59980 Upham Junction,Room 746,Houston,Texas,77255,29.834,-95.4342,713-373-5301,eblackshawl0@nytimes.com
758,3 Vernon Avenue,Suite 26,Roanoke,Virginia,24040,37.2742,-79.9579,540-866-5222,scerrol1@123-reg.co.uk
759,71 Prentice Avenue,1st Floor,Minneapolis,Minnesota,55446,45.04,-93.4865,763-659-1583,wcarranel2@domainmarket.com
760,3 Stang Way,Room 83,Palmdale,California,93591,34.6019,-117.8123,661-644-0921,jcarryerl3@printfriendly.com
761,367 Charing Cross Road,Suite 65,Henderson,Nevada,89012,36.0119,-115.0433,702-890-5681,edenizetl4@stanford.edu
762,11061 Dapin Plaza,Room 914,Washington,District of Columbia,20575,38.8933,-77.0146,202-633-6985,fmillicanl5@webs.com
763,944 School Avenue,Suite 12,Dallas,Texas,75372,32.7673,-96.7776,214-951-1223,msplevinsl6@si.edu
764,7196 Manley Trail,PO Box 55268,Portsmouth,New Hampshire,03804,43.0059,-71.0132,603-670-7531,jfidelusl7@acquirethisname.com
765,5080 Armistice Terrace,Room 1802,Lubbock,Texas,79452,33.61,-101.8213,806-215-3532,ldarcol8@ifeng.com
766,08 Melby Center,PO Box 19735,Saint Paul,Minnesota,55103,44.9608,-93.1216,612-827-8276,pzanettol9@hud.gov
767,0 Sunfield Drive,Suite 72,New York City,New York,10039,40.8265,-73.9383,917-135-6200,aodugganla@amazon.de
768,65121 Northfield Parkway,Room 1510,Farmington,Michigan,48335,42.4617,-83.4053,248-792-0406,nmattinglylb@cbslocal.com
769,49 Anderson Drive,PO Box 95924,Miami,Florida,33158,25.6364,-80.3187,305-992-8847,lgennerlc@trellian.com
770,16529 Dottie Street,9th Floor,Waterbury,Connecticut,06721,41.3657,-72.9275,203-363-5312,aschimekld@hp.com
771,153 Forest Dale Road,7th Floor,Longview,Texas,75605,32.5547,-94.7767,903-813-0894,handrollile@apache.org
772,0 Stephen Way,Suite 73,Jefferson City,Missouri,65110,38.5309,-92.2493,573-671-1127,mpuddinglf@ibm.com
773,32 Gerald Court,Apt 224,Fairfield,Connecticut,06825,41.1928,-73.2402,203-251-3977,tmcandrewlg@shop-pro.jp
774,61 Dapin Lane,PO Box 59168,Tallahassee,Florida,32304,30.4478,-84.3211,850-295-6058,nbothramlh@marketwatch.com
775,54040 Harper Alley,Apt 728,Austin,Texas,78732,30.3752,-97.9007,512-706-1810,khatchli@dropbox.com
776,29491 Sullivan Alley,Room 732,New York City,New York,10029,40.7918,-73.9448,917-628-3854,aharmondlj@last.fm
777,78315 Prentice Drive,Room 1415,Yakima,Washington,98907,46.6288,-120.574,509-679-9135,ltournerlk@shop-pro.jp
778,05834 Delladonna Point,Suite 83,Charleston,South Carolina,29411,32.8715,-79.9947,843-220-0673,gliebll@flickr.com
779,1 Mcbride Plaza,Room 1532,Minneapolis,Minnesota,55458,45.0159,-93.4719,612-572-9409,mdefreynelm@tripod.com
780,2 Harbort Pass,Room 108,Stamford,Connecticut,06905,41.0888,-73.5435,203-144-4247,hilettln@sourceforge.net
781,734 Upham Avenue,Room 1954,Largo,Florida,34643,27.881,-82.7619,727-364-5422,dtameslo@reddit.com
782,10 Kennedy Point,Suite 77,Memphis,Tennessee,38109,35.0425,-90.0732,901-445-0104,cseabrightlp@cnet.com
783,2 Forest Run Hill,3rd Floor,Charlotte,North Carolina,28242,35.26,-80.8042,704-273-2168,adimblebylq@ibm.com
784,579 Packers Terrace,Suite 89,El Paso,Texas,88569,31.6948,-106.3,915-847-1061,clautielr@prweb.com
785,303 American Avenue,9th Floor,Toledo,Ohio,43605,41.6525,-83.5085,419-624-2648,ljanatals@vimeo.com
786,0204 Coleman Avenue,PO Box 10404,Memphis,Tennessee,38136,35.2017,-89.9715,901-140-9261,jdolderlt@angelfire.com
787,45542 Sutherland Trail,PO Box 66608,Raleigh,North Carolina,27610,35.7667,-78.6008,919-858-7107,svatcherlu@joomla.org
788,3 Carpenter Crossing,Room 1495,Seattle,Washington,98175,47.7161,-122.3004,206-389-5939,acowderaylv@nhs.uk
789,3 Paget Lane,Suite 100,Albany,New York,12242,42.6149,-73.9708,518-799-2694,sknowlinglw@sakura.ne.jp
790,0488 Lakeland Drive,Apt 1824,Lakewood,Washington,98498,47.1591,-122.5485,253-867-2272,tannakinlx@usa.gov
791,327 Annamark Alley,Apt 734,Port Saint Lucie,Florida,34985,27.3822,-80.409,772-625-3099,lmoseyly@chicagotribune.com
792,00542 John Wall Crossing,Apt 1599,Oklahoma City,Oklahoma,73142,35.599,-97.6251,405-927-1110,rkleinsteinlz@elegantthemes.com
793,839 School Trail,PO Box 26345,Philadelphia,Pennsylvania,19136,40.0422,-75.0244,215-443-6885,zmcsaulm0@gmpg.org
794,18556 Hansons Court,Suite 100,San Diego,California,92137,32.8538,-117.1197,619-987-7595,tfernierm1@t.co
795,5 Milwaukee Pass,PO Box 97379,Washington,District of Columbia,20238,38.8933,-77.0146,202-669-4211,rweatherhoggm2@reuters.com
796,09 Lakeland Hill,Apt 211,Atlanta,Georgia,30356,33.8913,-84.0746,404-723-0856,vellingsworthm3@noaa.gov
797,20026 Myrtle Point,20th Floor,Youngstown,Ohio,44505,41.1257,-80.6277,330-898-6742,reastmentm4@utexas.edu
798,3 Lotheville Plaza,4th Floor,Washington,District of Columbia,20580,38.8933,-77.0146,202-358-9173,osketchm5@google.cn
799,1 Service Park,PO Box 95187,Tacoma,Washington,98464,47.0662,-122.1132,253-347-3258,dcaldeyrouxm6@rakuten.co.jp
800,96460 Commercial Circle,Apt 472,Dallas,Texas,75372,32.7673,-96.7776,214-362-7038,srewcassellm7@uol.com.br
801,84803 Dennis Trail,12th Floor,Lincoln,Nebraska,68505,40.8247,-96.6252,402-940-2550,fablittm8@parallels.com
802,0 Corscot Place,PO Box 98373,Phoenix,Arizona,85010,33.2765,-112.1872,602-731-4849,bgrimwadem9@domainmarket.com
803,4 Starling Alley,Suite 67,Shreveport,Louisiana,71105,32.4589,-93.7143,318-366-6212,rmcmurthyma@soundcloud.com
804,404 Pankratz Circle,Apt 1610,Birmingham,Alabama,35220,33.5446,-86.9292,205-240-8704,pmonksmb@cisco.com
805,24655 Acker Park,5th Floor,Kalamazoo,Michigan,49048,42.3189,-85.5152,269-455-0855,bbohlmc@google.co.uk
806,39593 Schlimgen Road,Room 707,Memphis,Tennessee,38161,35.2017,-89.9715,901-114-8190,jpriddeymd@auda.org.au
807,01 Dakota Way,Suite 95,Miami,Florida,33158,25.6364,-80.3187,305-711-8507,epaulleyme@springer.com
808,89 Northfield Crossing,3rd Floor,Bowie,Maryland,20719,38.8336,-76.8777,240-308-9706,nbothiemf@miibeian.gov.cn
809,57097 Blaine Drive,PO Box 4122,Santa Barbara,California,93111,34.4453,-119.8025,805-775-9604,upiepermg@linkedin.com
810,53625 Carey Terrace,11th Floor,Shreveport,Louisiana,71137,32.6076,-93.7526,318-917-0531,mjumeaumh@fema.gov
811,2 Lindbergh Drive,3rd Floor,Beaufort,South Carolina,29905,32.3401,-80.689,843-267-7243,eivanisovmi@theguardian.com
812,2106 Spohn Lane,Room 739,Wichita Falls,Texas,76310,33.8581,-98.5755,940-337-4318,jodomj@friendfeed.com
813,84030 Blackbird Point,PO Box 44208,Farmington,Michigan,48335,42.4617,-83.4053,248-717-8549,smustillmk@cnet.com
814,7968 1st Pass,Suite 54,Chattanooga,Tennessee,37410,35.0018,-85.3138,423-888-5061,edanneilml@flickr.com
815,3 Talmadge Alley,Room 1114,Eugene,Oregon,97405,44.0185,-123.0998,541-851-6409,acosinmm@hao123.com
816,0172 Kropf Junction,Apt 810,Philadelphia,Pennsylvania,19131,39.9845,-75.2282,215-987-1920,ggammettmn@technorati.com
817,8621 Springs Center,Room 1447,Montgomery,Alabama,36104,32.373,-86.3081,334-618-6586,gtoothillmo@posterous.com
818,697 Cardinal Crossing,Apt 1755,Newport News,Virginia,23605,37.0156,-76.4332,757-203-6088,swithersmp@engadget.com
819,9442 Lukken Plaza,PO Box 27120,Saint Louis,Missouri,63136,38.7196,-90.27,314-205-3970,lbeninimq@qq.com
820,1 Tennyson Circle,13th Floor,New Haven,Connecticut,06510,41.3087,-72.9271,203-506-7222,hdraggemr@mail.ru
821,64570 Farragut Place,PO Box 44450,Lancaster,Pennsylvania,17605,40.0185,-76.2976,717-350-6911,jschimonms@tripod.com
822,29462 Schiller Pass,Room 613,Whittier,California,90610,33.7866,-118.2987,562-584-2921,jsurgeonmt@aboutads.info
823,66936 High Crossing Plaza,Room 1372,Montgomery,Alabama,36119,32.2334,-86.2085,334-172-6236,cfinkermu@telegraph.co.uk
824,45135 Mendota Pass,Room 1307,Fort Collins,Colorado,80525,40.5384,-105.0547,970-238-2003,gleftleymv@woothemes.com
825,11 Hudson Hill,4th Floor,Los Angeles,California,90071,34.0529,-118.2549,424-522-4973,bpavkovicmw@booking.com
826,32702 Dennis Pass,11th Floor,Fort Lauderdale,Florida,33320,26.1625,-80.2582,754-337-3965,labramchikmx@indiatimes.com
827,69 Maple Wood Lane,Apt 1492,Amarillo,Texas,79188,35.1885,-101.8165,806-630-5625,omoncreiffmy@altervista.org
828,26169 Colorado Point,Apt 553,Largo,Florida,34643,27.881,-82.7619,727-247-3523,hheinsenmz@parallels.com
829,40691 Manufacturers Terrace,1st Floor,Honolulu,Hawaii,96845,21.3278,-157.8294,808-890-6018,ccrottyn0@instagram.com
830,8056 Hollow Ridge Drive,Apt 315,Lake Worth,Florida,33467,26.6104,-80.1683,561-683-9874,hjaslemn1@nhs.uk
831,3275 Harbort Alley,20th Floor,New Haven,Connecticut,06505,41.3057,-72.7799,203-496-2603,ljohnigann2@sakura.ne.jp
832,28348 Marquette Way,Room 617,Roanoke,Virginia,24048,37.2742,-79.9579,540-583-1349,bgarrardn3@tmall.com
833,16 Old Shore Street,Apt 1424,Providence,Rhode Island,02912,41.8267,-71.3977,401-308-7250,whann4@washingtonpost.com
834,9764 Sullivan Parkway,Suite 55,Los Angeles,California,90060,33.7866,-118.2987,323-425-7897,rwhartonn5@seattletimes.com
835,870 Dennis Court,Apt 1599,Boise,Idaho,83711,43.4599,-116.244,208-558-8313,twinfredn6@msn.com
836,5412 Fieldstone Junction,15th Floor,Baton Rouge,Louisiana,70815,30.4558,-91.0596,225-395-3513,drekesn7@google.com.au
837,0 Lunder Crossing,Apt 29,San Francisco,California,94154,37.7848,-122.7278,415-704-5206,glaxn8@cbslocal.com
838,89 7th Hill,Apt 1566,Pompano Beach,Florida,33075,26.1457,-80.4483,754-637-6233,lcakesn9@cbsnews.com
839,64581 Lakewood Lane,7th Floor,San Diego,California,92137,32.8538,-117.1197,619-132-9665,thallworthna@sina.com.cn
840,4 Bunting Trail,15th Floor,Wichita,Kansas,67236,37.5422,-97.2871,316-228-8258,eyepiskopovnb@oracle.com
841,67 Schlimgen Hill,Suite 17,Indianapolis,Indiana,46226,39.8326,-86.0836,317-649-7442,fhanneync@nymag.com
842,194 Gale Center,Room 1975,Jackson,Mississippi,39216,32.3386,-90.1708,601-466-3031,fabercrombynd@taobao.com
843,7849 Old Shore Center,7th Floor,Louisville,Kentucky,40250,38.189,-85.6768,502-763-8888,scabedone@lulu.com
844,05494 Golf Court,15th Floor,Mc Keesport,Pennsylvania,15134,40.4344,-80.0248,412-705-2137,irubinovitchnf@newsvine.com
845,90257 East Trail,Room 189,Colorado Springs,Colorado,80930,38.8289,-104.5269,719-564-2584,cbenitong@opera.com
846,20 Manufacturers Center,9th Floor,Brooklyn,New York,11231,40.6794,-74.0014,718-271-0838,rhuorticnh@bbb.org
847,995 Jackson Drive,Suite 88,Fresno,California,93778,36.7464,-119.6397,559-673-5358,bhaggettni@macromedia.com
848,733 Comanche Circle,Apt 76,Midland,Michigan,48670,43.6375,-84.2568,989-940-5406,egardnernj@creativecommons.org
849,51 Dryden Crossing,Room 1689,Des Moines,Iowa,50362,41.6727,-93.5722,515-507-1942,wgilyottnk@yellowbook.com
850,4606 Duke Place,Suite 78,Lubbock,Texas,79415,33.6021,-101.876,806-373-2673,bpendrednl@ucsd.edu
851,3 Ronald Regan Road,Room 757,Cleveland,Ohio,44185,41.6857,-81.6728,216-575-4754,jpoundsfordnm@fc2.com
852,221 Dorton Pass,Suite 4,Cincinnati,Ohio,45233,39.111,-84.6594,513-729-2216,gtrahearnn@fda.gov
853,2361 Fieldstone Parkway,Suite 84,Lakeland,Florida,33811,27.9865,-82.0139,863-532-3645,rblincoweno@angelfire.com
854,13829 Katie Way,Apt 58,San Jose,California,95113,37.3329,-121.8916,650-846-3303,hboustrednp@admin.ch
855,2 Dawn Terrace,Suite 55,Des Moines,Iowa,50330,41.6727,-93.5722,515-195-9807,gsimoneschinq@altervista.org
856,4535 Eastlawn Alley,Suite 45,Columbus,Ohio,43215,39.9671,-83.0044,614-471-8374,dmosennr@nifty.com
857,8669 West Court,PO Box 38109,Decatur,Illinois,62525,39.854,-88.9815,217-918-5844,ecannawayns@t.co
858,79466 Cordelia Court,16th Floor,Pensacola,Florida,32526,30.4756,-87.3179,850-299-2173,qheistermannnt@spotify.com
859,18 Rusk Road,Room 1691,Sioux Falls,South Dakota,57193,43.6746,-96.7913,605-949-8340,sedensornu@ftc.gov
860,965 Lukken Court,Suite 57,Reno,Nevada,89505,39.5224,-119.8353,775-921-0536,hbelmontnv@pen.io
861,6 Hazelcrest Circle,PO Box 99536,Atlanta,Georgia,30375,33.8444,-84.474,404-602-5173,sduddinnw@shutterfly.com
862,86663 Summer Ridge Alley,Apt 1675,Houston,Texas,77234,29.834,-95.4342,713-311-7865,codonohuenx@godaddy.com
863,3255 Old Gate Point,Apt 1608,Dallas,Texas,75210,32.7699,-96.743,469-988-7466,jingrahamny@de.vu
864,8733 Warbler Terrace,PO Box 23860,Denton,Texas,76210,33.1428,-97.0727,817-805-7177,mtodmannz@furl.net
865,79098 Ridgeview Road,Apt 583,Mobile,Alabama,36628,30.6589,-88.178,251-517-3188,wbachero0@1688.com
866,829 Paget Junction,Apt 917,Boynton Beach,Florida,33436,26.5354,-80.1124,561-521-4531,oboatero1@boston.com
867,17150 Judy Lane,PO Box 50490,San Diego,California,92127,33.0279,-117.0856,619-236-4410,abutteryo2@elpais.com
868,1771 Arapahoe Terrace,8th Floor,Detroit,Michigan,48242,42.2166,-83.3532,734-727-2332,vgidmano3@netscape.com
869,0968 Brentwood Court,Apt 1802,Fairbanks,Alaska,99790,64.8561,-146.276,907-880-4247,kpersickeo4@about.me
870,749 Towne Pass,Suite 56,Carol Stream,Illinois,60351,41.9166,-88.1208,309-969-1423,jsetteringtono5@disqus.com
871,724 Mayfield Plaza,Apt 1910,Trenton,New Jersey,08619,40.2418,-74.6962,609-627-5886,bstapellso6@youku.com
872,81607 4th Road,Room 1902,Toledo,Ohio,43635,41.6868,-83.4394,419-276-9443,lerangeyo7@nps.gov
873,79085 Elgar Pass,Suite 38,Tucson,Arizona,85705,32.2691,-110.9845,520-796-4102,efewstero8@hibu.com
874,40844 Ilene Hill,Apt 451,Oklahoma City,Oklahoma,73142,35.599,-97.6251,405-913-0289,clabbezo9@diigo.com
875,7250 Village Green Junction,Room 1829,Boca Raton,Florida,33499,26.6459,-80.4303,561-536-5682,kcramondoa@jugem.jp
876,4476 Mesta Point,17th Floor,Chicago,Illinois,60663,41.8119,-87.6873,312-365-6215,kleonob@xinhuanet.com
877,9 Trailsway Point,Room 525,Fort Worth,Texas,76192,32.7714,-97.2915,682-699-3108,cpulferoc@mysql.com
878,1 Delaware Junction,PO Box 6058,Topeka,Kansas,66629,39.0429,-95.7697,785-238-2214,wbiasiod@infoseek.co.jp
879,1 Eagan Junction,4th Floor,Fort Collins,Colorado,80525,40.5384,-105.0547,970-690-7625,nescreetoe@bluehost.com
880,84155 Brickson Park Alley,Room 701,Canton,Ohio,44705,40.8259,-81.3399,330-633-3041,awarcupof@mit.edu
881,0252 Eastlawn Drive,14th Floor,Colorado Springs,Colorado,80940,38.8247,-104.562,719-760-7024,jmcmoyerog@photobucket.com
882,4757 Waubesa Terrace,18th Floor,Young America,Minnesota,55573,45.0159,-93.4719,952-209-3564,jmensleroh@ox.ac.uk
883,42969 Northport Pass,Apt 1297,Marietta,Georgia,30061,33.9328,-84.556,770-782-6187,tlabittoi@facebook.com
884,4830 Summer Ridge Court,Suite 2,Hampton,Virginia,23668,37.0206,-76.3377,757-911-5294,dmatresseoj@hexun.com
885,4767 Mallard Plaza,PO Box 6867,Irvine,California,92612,33.6607,-117.8264,714-920-0948,kferreiraok@icq.com
886,41 Graceland Place,13th Floor,Los Angeles,California,90189,34.0515,-118.2559,213-543-3977,dmundellol@mit.edu
887,2 Anhalt Drive,Room 1637,Minneapolis,Minnesota,55470,45.0159,-93.4719,612-839-0579,byoutheadom@soup.io
888,5 Kensington Way,PO Box 85047,Richmond,Virginia,23293,37.5242,-77.4932,804-452-6978,rhedinon@geocities.com
889,2 Holmberg Place,5th Floor,Dallas,Texas,75353,32.7673,-96.7776,214-617-2032,aklessoo@dedecms.com
890,25 Blackbird Park,15th Floor,Silver Spring,Maryland,20904,39.0668,-76.9969,202-850-5607,tdrippsop@joomla.org
891,928 Hintze Lane,1st Floor,Tucson,Arizona,85754,31.9701,-111.8907,520-280-0078,lridgwayoq@infoseek.co.jp
892,0134 Rutledge Avenue,5th Floor,Fort Smith,Arkansas,72905,35.191,-94.2382,479-503-1061,cakriggor@opensource.org
893,91787 Anhalt Alley,Room 655,Los Angeles,California,90045,33.9631,-118.3941,323-850-8065,fkayos@163.com
894,5741 Daystar Road,Room 820,Loretto,Minnesota,55598,45.0159,-93.4719,763-798-7063,cmatchellot@go.com
895,7 Thompson Court,PO Box 16537,Dearborn,Michigan,48126,42.3349,-83.1801,734-944-8963,nsnodayou@archive.org
896,2590 Dottie Park,1st Floor,Dallas,Texas,75260,32.7673,-96.7776,214-135-6988,ldallingov@pen.io
897,0280 Atwood Circle,Room 537,Cheyenne,Wyoming,82007,41.1084,-104.8107,307-305-7739,nbastockow@boston.com
898,6 Mockingbird Alley,PO Box 38605,Santa Monica,California,90405,34.01,-118.4717,818-600-2374,idecruseox@dropbox.com
899,839 Park Meadow Parkway,Room 465,Longview,Texas,75605,32.5547,-94.7767,903-639-7087,wchatelainoy@delicious.com
900,62780 Delladonna Court,PO Box 24964,Albuquerque,New Mexico,87115,35.0549,-106.5461,505-937-7638,hpoleyeoz@bing.com
901,81 Boyd Center,Room 1755,Spartanburg,South Carolina,29319,34.8882,-81.969,864-635-3691,fgronop0@vkontakte.ru
902,41899 Green Ridge Road,PO Box 30123,Charleston,West Virginia,25313,38.4142,-81.7582,304-703-5999,lhobbingp1@elpais.com
903,12 Commercial Avenue,Suite 26,Erie,Pennsylvania,16522,42.1827,-80.0649,814-497-6896,ctighep2@naver.com
904,130 Blue Bill Park Park,Apt 1701,Washington,District of Columbia,20470,38.8933,-77.0146,202-876-9975,eciottip3@youtu.be
905,8 Crowley Alley,19th Floor,Detroit,Michigan,48267,42.2399,-83.1508,313-449-5268,cmcphelimeyp4@free.fr
906,25 Dorton Point,Suite 48,Corpus Christi,Texas,78470,27.777,-97.4632,361-938-5382,aspellardp5@quantcast.com
907,83266 West Point,Apt 412,Rochester,New York,14652,43.286,-77.6843,585-764-6874,dsiblyp6@umich.edu
908,075 Ridgeway Street,PO Box 42677,Houston,Texas,77206,29.834,-95.4342,713-776-4220,edomencp7@fda.gov
909,4074 Norway Maple Parkway,Room 1682,Seattle,Washington,98133,47.7377,-122.3431,425-958-1302,rsharpousp8@bloomberg.com
910,8756 Prairieview Crossing,Suite 13,Peoria,Illinois,61635,40.7442,-89.7184,309-378-4518,gmulchronep9@uiuc.edu
911,7 Upham Junction,PO Box 91151,Racine,Wisconsin,53405,42.7161,-87.8233,262-989-9429,tpardypa@vistaprint.com
912,51178 Mendota Parkway,Room 824,Marietta,Georgia,30061,33.9328,-84.556,770-665-6468,bmckibbenpb@histats.com
913,0 Dryden Trail,Apt 361,Louisville,Kentucky,40220,38.2149,-85.6245,502-551-0743,hwehdenpc@imageshack.us
914,77812 Becker Plaza,Room 748,Raleigh,North Carolina,27621,35.7977,-78.6253,919-466-2739,ssambedgepd@patch.com
915,09441 Commercial Crossing,Suite 4,Dallas,Texas,75367,32.7673,-96.7776,214-935-8240,dklesspe@wired.com
916,1 Summer Ridge Court,PO Box 49069,Springfield,Virginia,22156,38.8318,-77.2888,571-636-0745,mpretswellpf@ocn.ne.jp
917,52547 Schiller Plaza,PO Box 61811,Eugene,Oregon,97405,44.0185,-123.0998,541-752-3287,bhairesnapepg@yellowbook.com
918,3655 Stephen Alley,19th Floor,Athens,Georgia,30605,33.9321,-83.3525,706-538-8357,ghowsanph@gizmodo.com
919,5870 Corry Court,Room 776,Birmingham,Alabama,35215,33.6493,-86.7057,205-299-9168,lbalshawpi@yale.edu
920,5047 Corscot Park,PO Box 62683,Albany,New York,12262,42.6149,-73.9708,518-876-1450,ctomkinsonpj@wikimedia.org
921,531 Autumn Leaf Court,Room 462,Vero Beach,Florida,32969,27.709,-80.5726,772-526-5115,uburchnallpk@blogspot.com
922,160 Village Green Trail,Suite 53,Atlanta,Georgia,30356,33.8913,-84.0746,404-713-6245,vhonatschpl@altervista.org
923,2347 Grasskamp Terrace,15th Floor,Atlanta,Georgia,31136,33.7473,-84.3824,404-483-3679,lkeeblepm@adobe.com
924,13059 Main Park,Suite 26,Asheville,North Carolina,28815,35.6203,-82.5286,828-649-9028,fgouleypn@4shared.com
925,7 Old Shore Way,Apt 780,Baltimore,Maryland,21290,39.2933,-76.6238,410-463-9224,dbrahmerpo@biblegateway.com
926,1667 Jenifer Avenue,Suite 77,Little Rock,Arkansas,72209,34.6725,-92.3529,501-358-5704,wmuckeenpp@huffingtonpost.com
927,6 Scoville Hill,Room 1232,Flint,Michigan,48555,43.0113,-83.7108,810-276-9361,idavidovitspq@i2i.jp
928,682 Grayhawk Trail,Suite 60,Miami Beach,Florida,33141,25.8486,-80.1446,305-618-3221,lvogelerpr@who.int
929,0 Forest Dale Road,Suite 47,Daytona Beach,Florida,32128,29.0838,-81.0336,386-132-6566,cheathornps@phpbb.com
930,8 Garrison Plaza,Suite 19,New Haven,Connecticut,06510,41.3087,-72.9271,203-623-4985,udaleypt@dailymail.co.uk
931,05521 Alpine Plaza,13th Floor,Clearwater,Florida,33763,28.0173,-82.7461,727-329-5995,mmattiazzipu@squarespace.com
932,3 Mccormick Alley,PO Box 50169,Memphis,Tennessee,38131,35.0664,-89.9921,901-643-1559,bpappinpv@elegantthemes.com
933,7 Muir Park,Suite 24,Rockville,Maryland,20851,39.0763,-77.1234,301-988-2077,awonforpw@live.com
934,98574 Scoville Center,Suite 14,Reading,Pennsylvania,19605,40.3886,-75.9328,484-710-8233,jlindstedtpx@mysql.com
935,5247 Melrose Park,Suite 3,Arlington,Texas,76011,32.7582,-97.1003,214-569-8554,soruddenpy@freewebs.com
936,4794 Fisk Park,Room 1247,Phoenix,Arizona,85099,33.2765,-112.1872,602-145-3395,agiacobonipz@icio.us
937,77670 Columbus Trail,PO Box 60558,Albany,New York,12222,42.6853,-73.8253,518-445-4823,jdunphyq0@thetimes.co.uk
938,58 Donald Place,16th Floor,El Paso,Texas,88535,31.6948,-106.3,915-957-4187,cparsandq1@google.co.jp
939,62074 Mcguire Center,15th Floor,Jacksonville,Florida,32230,30.3449,-81.6831,904-666-2302,meddingtonq2@vistaprint.com
940,43409 Gina Pass,Room 1343,New Brunswick,New Jersey,08922,40.43,-74.4173,732-245-9502,pcowserq3@naver.com
941,283 Lunder Center,PO Box 78755,Dallas,Texas,75236,32.69,-96.9177,972-253-9168,elarderotq4@purevolume.com
942,469 Norway Maple Pass,PO Box 50225,London,Kentucky,40745,37.1376,-84.1156,606-760-6290,mdunrigeq5@1und1.de
943,95237 Thackeray Drive,Apt 1250,Topeka,Kansas,66611,39.0142,-95.6982,785-295-8658,prushmerq6@eepurl.com
944,718 Clemons Avenue,Apt 717,Greensboro,North Carolina,27415,36.0807,-80.0244,336-591-6482,mchisholmq7@mapquest.com
945,3694 Troy Point,12th Floor,Portland,Oregon,97201,45.5078,-122.6897,971-529-5020,btomblesonq8@free.fr
946,129 Merchant Terrace,Apt 177,Savannah,Georgia,31405,32.0391,-81.1242,912-305-3188,kcicchettoq9@fotki.com
947,1641 8th Crossing,Suite 60,Milwaukee,Wisconsin,53220,42.9559,-87.9933,414-228-1679,bmeriothqa@nationalgeographic.com
948,73866 Golden Leaf Parkway,4th Floor,Charleston,West Virginia,25313,38.4142,-81.7582,304-528-8274,dgongqb@nymag.com
949,699 Lakeland Park,Apt 1478,Peoria,Illinois,61635,40.7442,-89.7184,309-711-2555,smollinqc@opera.com
950,477 6th Avenue,PO Box 39736,Paterson,New Jersey,07544,41.0114,-74.3048,862-997-6393,fcarrabottqd@si.edu
951,833 Debra Road,Apt 1378,New York City,New York,10009,40.7262,-73.9796,212-802-2333,tbartolommeoqe@infoseek.co.jp
952,1 Mitchell Avenue,PO Box 37654,Evansville,Indiana,47747,37.9971,-87.575,812-503-5974,rkearyqf@opera.com
953,43 Chive Plaza,2nd Floor,Houston,Texas,77020,29.7758,-95.3121,713-338-2208,pgannqg@rediff.com
954,5 Badeau Center,PO Box 5024,Reston,Virginia,20195,38.8318,-77.2888,703-377-0730,pvamplewqh@twitter.com
955,80080 Shopko Parkway,Apt 421,Detroit,Michigan,48232,42.2399,-83.1508,313-420-1212,awitcherleyqi@sciencedaily.com
956,66372 Northland Terrace,Suite 60,Beaverton,Oregon,97075,45.5486,-123.1147,503-299-4272,sheiningqj@boston.com
957,449 Novick Junction,Suite 71,Rochester,New York,14604,43.1577,-77.608,585-936-6768,dwestollqk@uiuc.edu
958,468 Dawn Plaza,Suite 54,White Plains,New York,10633,41.119,-73.733,914-714-3553,rivainql@wisc.edu
959,5 Tennyson Junction,2nd Floor,Lansing,Michigan,48901,42.5992,-84.372,517-873-0691,gdablingqm@thetimes.co.uk
960,39 Melby Terrace,PO Box 97527,Orlando,Florida,32868,28.5663,-81.2608,407-312-2082,hducarelqn@shutterfly.com
961,95515 Southridge Street,Room 250,Stockton,California,95205,37.9625,-121.2624,209-148-9659,anewdickqo@cargocollective.com
962,09880 Susan Avenue,Suite 48,Atlanta,Georgia,30323,33.8444,-84.474,678-353-5843,wtriswellqp@quantcast.com
963,39061 Lindbergh Place,Suite 51,Washington,District of Columbia,20051,38.8933,-77.0146,202-144-7203,ipideonqq@indiegogo.com
964,98 Tennyson Terrace,Apt 964,Bradenton,Florida,34282,27.4272,-82.4387,941-708-9685,scruxtonqr@amazon.co.jp
965,698 Eastwood Lane,PO Box 12096,Memphis,Tennessee,38136,35.2017,-89.9715,901-460-5659,darsonqs@examiner.com
966,81 Sachs Park,Suite 30,Hartford,Connecticut,06140,41.7918,-72.7188,860-410-2398,wlubyqt@tripadvisor.com
967,815 4th Crossing,Apt 501,San Diego,California,92115,32.7607,-117.0721,619-441-0566,lfeedhamqu@github.io
968,2 Northwestern Parkway,PO Box 35630,Lexington,Kentucky,40576,38.0283,-84.4715,859-741-7518,hparagreenqv@deviantart.com
969,334 Westridge Hill,Suite 37,Mount Vernon,New York,10557,41.119,-73.733,914-276-1381,cdeerrqw@amazon.com
970,647 Forest Dale Hill,7th Floor,Lancaster,Pennsylvania,17622,40.0418,-76.3012,717-673-9617,maidlerqx@bloglovin.com
971,5633 Bashford Pass,Suite 76,Honolulu,Hawaii,96845,21.3278,-157.8294,808-545-2491,wlalorqy@amazon.com
972,086 Parkside Court,PO Box 87289,Charleston,South Carolina,29424,32.7831,-79.937,843-285-6564,mgaydonqz@chicagotribune.com
973,16 Ryan Drive,Suite 41,Lawrenceville,Georgia,30245,33.9464,-83.9912,770-567-5328,cpenderr0@homestead.com
974,55666 Arapahoe Park,11th Floor,Greeley,Colorado,80638,40.5009,-104.315,970-788-5648,jluchettir1@behance.net
975,68 Farragut Circle,Room 234,Oklahoma City,Oklahoma,73142,35.599,-97.6251,405-348-7944,ldannr2@google.co.uk
976,20140 Transport Place,PO Box 74847,Orlando,Florida,32819,28.4522,-81.4678,941-889-8129,rbernakiewiczr3@vistaprint.com
977,7320 Colorado Drive,Room 1055,Dayton,Ohio,45408,39.7395,-84.229,937-930-5458,jparadiser4@addtoany.com
978,0036 Bunting Junction,PO Box 10427,Anchorage,Alaska,99599,61.1872,-149.8804,907-115-5631,pclaricoatesr5@java.com
979,700 Carberry Court,Apt 866,Washington,District of Columbia,20067,38.8933,-77.0146,202-209-9322,cmcrannellr6@indiegogo.com
980,2336 Lakewood Gardens Alley,Room 880,Portland,Oregon,97286,45.5806,-122.3748,503-147-1859,tpatenr7@ibm.com
981,11724 2nd Park,Room 1392,Madison,Wisconsin,53716,43.0631,-89.3133,608-922-5350,lghentr8@discovery.com
982,6 Old Shore Road,PO Box 36023,Pasadena,California,91125,33.7866,-118.2987,626-516-1716,nmuldoonr9@yelp.com
983,399 Pond Court,Room 1261,Dayton,Ohio,45426,39.7982,-84.3211,937-354-6395,rshoweringra@shinystat.com
984,188 Tony Court,20th Floor,South Bend,Indiana,46634,41.5968,-86.293,574-215-2224,tganterrb@shutterfly.com
985,476 Eastlawn Avenue,Room 170,Tacoma,Washington,98464,47.0662,-122.1132,253-372-3658,vgradleyrc@google.co.uk
986,195 Darwin Terrace,7th Floor,Olympia,Washington,98516,47.1126,-122.7794,360-116-9600,lkrojnrd@amazon.de
987,5 Pine View Terrace,Room 526,Fort Lauderdale,Florida,33315,26.0989,-80.1541,954-194-5354,tdrewittre@vk.com
988,8 2nd Center,Suite 33,Yakima,Washington,98907,46.6288,-120.574,509-239-5695,rvollerrf@opera.com
989,37 Declaration Circle,Suite 93,Houston,Texas,77201,29.834,-95.4342,832-399-5101,cpontingrg@zdnet.com
990,970 High Crossing Trail,PO Box 52526,Wilmington,North Carolina,28405,34.2651,-77.867,910-869-9458,eburchmorerh@omniture.com
991,603 Grim Way,Room 427,Galveston,Texas,77554,29.2243,-94.9637,409-321-7885,ctweedlieri@pagesperso-orange.fr
992,92 6th Park,Apt 1723,Columbia,South Carolina,29203,34.0635,-81.0265,803-968-9769,bpiesingrj@amazonaws.com
993,41758 Buhler Pass,12th Floor,Glendale,Arizona,85311,33.2765,-112.1872,602-688-8752,lmariotterk@storify.com
994,6 Hermina Street,9th Floor,Charlotte,North Carolina,28205,35.22,-80.7881,704-510-3989,dshevillrl@uiuc.edu
995,6 Utah Hill,PO Box 61069,Port Charlotte,Florida,33954,27.0228,-82.1108,941-660-4452,gcrowrm@nhs.uk
996,087 Center Lane,Suite 3,Naples,Florida,33961,26.045,-81.6669,305-289-2337,rmacinnesrn@homestead.com
997,92268 Sheridan Parkway,Apt 618,Greensboro,North Carolina,27499,36.0807,-80.0244,336-917-7120,scheavinro@behance.net
998,2875 Dottie Way,PO Box 82671,Vancouver,Washington,98682,45.6644,-122.5212,360-255-6559,pnutmanrp@chronoengine.com
999,693 Magdeline Hill,Suite 48,Oakland,California,94616,37.8044,-122.2698,510-451-3259,mbilfootrq@squidoo.com
1000,555 Gale Pass,Room 188,Simi Valley,California,93094,34.0324,-119.1343,805-847-5358,rtaborrerr@discuz.net
